"Station Name","TORONTO CITY"
"Province","ONTARIO"
"Latitude","43.67"
"Longitude","-79.40"
"Elevation","112.50"
"Climate Identifier","6158355"
"WMO Identifier","71508"
"TC Identifier","XTO"
"All times are specified in Local Standard Time (LST). Add 1 hour to adjust for Daylight Saving Time where and when it is observed."

"Legend"
"E","Estimated"
"M","Missing"
"NA","Not Available"

"Date/Time","Year","Month","Day","Time","Temp (°C)","Temp Flag","Dew Point Temp (°C)","Dew Point Temp Flag","Rel Hum (%)","Rel Hum Flag","Wind Dir (10s deg)","Wind Dir Flag","Wind Spd (km/h)","Wind Spd Flag","Visibility (km)","Visibility Flag","Stn Press (kPa)","Stn Press Flag","Hmdx","Hmdx Flag","Wind Chill","Wind Chill Flag","Weather"
"2005-08-01 00:00","2005","08","01","00:00","23.4","","16.3","","64","","","M","","M","","","100.61","","28","","","","NA"
"2005-08-01 01:00","2005","08","01","01:00","20.7","","18.9","","89","","","M","","M","","","100.51","","27","","","","NA"
"2005-08-01 02:00","2005","08","01","02:00","20.7","","19.4","","92","","","M","","M","","","100.40","","28","","","","NA"
"2005-08-01 03:00","2005","08","01","03:00","20.9","","19.0","","89","","","M","","M","","","100.45","","28","","","","NA"
"2005-08-01 04:00","2005","08","01","04:00","20.0","","19.2","","95","","","M","","M","","","100.38","","27","","","","NA"
"2005-08-01 05:00","2005","08","01","05:00","19.8","","19.2","","96","","","M","","M","","","100.43","","","","","","NA"
"2005-08-01 06:00","2005","08","01","06:00","19.9","","19.5","","98","","","M","","M","","","100.41","","","","","","NA"
"2005-08-01 07:00","2005","08","01","07:00","21.2","","19.6","","91","","","M","","M","","","100.38","","28","","","","NA"
"2005-08-01 08:00","2005","08","01","08:00","23.1","","19.5","","80","","","M","","M","","","100.43","","30","","","","NA"
"2005-08-01 09:00","2005","08","01","09:00","24.8","","20.5","","77","","","M","","M","","","100.43","","33","","","","NA"
"2005-08-01 10:00","2005","08","01","10:00","25.9","","20.9","","74","","","M","","M","","","100.41","","34","","","","NA"
"2005-08-01 11:00","2005","08","01","11:00","26.9","","21.0","","70","","","M","","M","","","100.38","","35","","","","NA"
"2005-08-01 12:00","2005","08","01","12:00","29.7","","21.6","","62","","","M","","M","","","100.29","","39","","","","NA"
"2005-08-01 13:00","2005","08","01","13:00","29.8","","22.0","","63","","","M","","M","","","100.24","","39","","","","NA"
"2005-08-01 14:00","2005","08","01","14:00","33.0","","21.6","","51","","","M","","M","","","100.17","","42","","","","NA"
"2005-08-01 15:00","2005","08","01","15:00","32.2","","20.8","","51","","","M","","M","","","100.15","","40","","","","NA"
"2005-08-01 16:00","2005","08","01","16:00","30.6","","21.6","","59","","","M","","M","","","100.13","","40","","","","NA"
"2005-08-01 17:00","2005","08","01","17:00","30.9","","22.6","","61","","","M","","M","","","100.14","","41","","","","NA"
"2005-08-01 18:00","2005","08","01","18:00","30.1","","22.2","","63","","","M","","M","","","100.13","","40","","","","NA"
"2005-08-01 19:00","2005","08","01","19:00","29.3","","21.9","","64","","","M","","M","","","100.21","","39","","","","NA"
"2005-08-01 20:00","2005","08","01","20:00","28.4","","21.6","","67","","","M","","M","","","100.30","","37","","","","NA"
"2005-08-01 21:00","2005","08","01","21:00","27.2","","21.7","","72","","","M","","M","","","100.32","","36","","","","NA"
"2005-08-01 22:00","2005","08","01","22:00","26.3","","22.3","","79","","","M","","M","","","100.33","","36","","","","NA"
"2005-08-01 23:00","2005","08","01","23:00","25.0","","21.9","","83","","","M","","M","","","100.30","","34","","","","NA"
"2005-08-02 00:00","2005","08","02","00:00","24.9","","20.9","","78","","","M","","M","","","100.30","","33","","","","NA"
"2005-08-02 01:00","2005","08","02","01:00","24.4","","20.8","","80","","","M","","M","","","100.30","","33","","","","NA"
"2005-08-02 02:00","2005","08","02","02:00","24.2","","20.5","","80","","","M","","M","","","100.28","","32","","","","NA"
"2005-08-02 03:00","2005","08","02","03:00","23.4","","20.4","","83","","","M","","M","","","100.29","","31","","","","NA"
"2005-08-02 04:00","2005","08","02","04:00","22.4","","20.3","","88","","","M","","M","","","100.32","","30","","","","NA"
"2005-08-02 05:00","2005","08","02","05:00","22.2","","20.3","","89","","","M","","M","","","100.34","","30","","","","NA"
"2005-08-02 06:00","2005","08","02","06:00","22.4","","20.6","","90","","","M","","M","","","100.38","","30","","","","NA"
"2005-08-02 07:00","2005","08","02","07:00","23.8","","20.9","","84","","","M","","M","","","100.42","","32","","","","NA"
"2005-08-02 08:00","2005","08","02","08:00","25.6","","20.6","","74","","","M","","M","","","100.44","","34","","","","NA"
"2005-08-02 09:00","2005","08","02","09:00","27.3","","19.7","","63","","","M","","M","","","100.39","","35","","","","NA"
"2005-08-02 10:00","2005","08","02","10:00","28.6","","21.8","","67","","","M","","M","","","100.38","","38","","","","NA"
"2005-08-02 11:00","2005","08","02","11:00","28.6","","21.7","","66","","","M","","M","","","100.37","","38","","","","NA"
"2005-08-02 12:00","2005","08","02","12:00","25.6","","22.2","","82","","","M","","M","","","100.39","","35","","","","NA"
"2005-08-02 13:00","2005","08","02","13:00","24.3","","22.7","","91","","","M","","M","","","100.30","","34","","","","NA"
"2005-08-02 14:00","2005","08","02","14:00","24.0","","21.5","","86","","","M","","M","","","100.31","","33","","","","NA"
"2005-08-02 15:00","2005","08","02","15:00","23.8","","22.0","","90","","","M","","M","","","100.24","","33","","","","NA"
"2005-08-02 16:00","2005","08","02","16:00","22.9","","21.7","","93","","","M","","M","","","100.31","","32","","","","NA"
"2005-08-02 17:00","2005","08","02","17:00","22.7","","20.9","","90","","","M","","M","","","100.25","","31","","","","NA"
"2005-08-02 18:00","2005","08","02","18:00","24.5","","21.7","","84","","","M","","M","","","100.21","","34","","","","NA"
"2005-08-02 19:00","2005","08","02","19:00","24.4","","21.7","","85","","","M","","M","","","100.21","","33","","","","NA"
"2005-08-02 20:00","2005","08","02","20:00","23.3","","21.5","","90","","","M","","M","","","100.22","","32","","","","NA"
"2005-08-02 21:00","2005","08","02","21:00","22.6","","21.4","","93","","","M","","M","","","100.24","","31","","","","NA"
"2005-08-02 22:00","2005","08","02","22:00","22.5","","21.6","","95","","","M","","M","","","100.22","","31","","","","NA"
"2005-08-02 23:00","2005","08","02","23:00","22.3","","21.7","","96","","","M","","M","","","100.23","","31","","","","NA"
"2005-08-03 00:00","2005","08","03","00:00","22.1","","21.7","","98","","","M","","M","","","100.26","","31","","","","NA"
"2005-08-03 01:00","2005","08","03","01:00","21.8","","21.4","","98","","","M","","M","","","100.23","","31","","","","NA"
"2005-08-03 02:00","2005","08","03","02:00","21.8","","21.3","","97","","","M","","M","","","100.20","","30","","","","NA"
"2005-08-03 03:00","2005","08","03","03:00","21.8","","21.2","","96","","","M","","M","","","100.18","","30","","","","NA"
"2005-08-03 04:00","2005","08","03","04:00","21.5","","20.9","","96","","","M","","M","","","100.20","","30","","","","NA"
"2005-08-03 05:00","2005","08","03","05:00","21.3","","20.8","","97","","","M","","M","","","100.22","","30","","","","NA"
"2005-08-03 06:00","2005","08","03","06:00","21.7","","21.2","","97","","","M","","M","","","100.23","","30","","","","NA"
"2005-08-03 07:00","2005","08","03","07:00","23.6","","21.5","","88","","","M","","M","","","100.28","","32","","","","NA"
"2005-08-03 08:00","2005","08","03","08:00","26.4","","22.5","","79","","","M","","M","","","100.28","","36","","","","NA"
"2005-08-03 09:00","2005","08","03","09:00","28.4","","22.1","","69","","","M","","M","","","100.29","","38","","","","NA"
"2005-08-03 10:00","2005","08","03","10:00","28.8","","23.0","","71","","","M","","M","","","100.28","","39","","","","NA"
"2005-08-03 11:00","2005","08","03","11:00","29.7","","23.2","","68","","","M","","M","","","100.27","","40","","","","NA"
"2005-08-03 12:00","2005","08","03","12:00","29.8","","22.7","","66","","","M","","M","","","100.25","","40","","","","NA"
"2005-08-03 13:00","2005","08","03","13:00","31.0","","22.8","","62","","","M","","M","","","100.21","","41","","","","NA"
"2005-08-03 14:00","2005","08","03","14:00","31.7","","22.3","","58","","","M","","M","","","100.17","","41","","","","NA"
"2005-08-03 15:00","2005","08","03","15:00","32.1","","21.8","","55","","","M","","M","","","100.10","","41","","","","NA"
"2005-08-03 16:00","2005","08","03","16:00","33.1","","19.0","","43","","","M","","M","","","100.03","","40","","","","NA"
"2005-08-03 17:00","2005","08","03","17:00","33.1","","18.8","","43","","","M","","M","","","100.04","","40","","","","NA"
"2005-08-03 18:00","2005","08","03","18:00","32.1","","18.8","","45","","","M","","M","","","100.06","","39","","","","NA"
"2005-08-03 19:00","2005","08","03","19:00","31.6","","19.0","","47","","","M","","M","","","100.11","","38","","","","NA"
"2005-08-03 20:00","2005","08","03","20:00","29.6","","19.1","","53","","","M","","M","","","100.13","","36","","","","NA"
"2005-08-03 21:00","2005","08","03","21:00","27.3","","19.0","","61","","","M","","M","","","100.14","","34","","","","NA"
"2005-08-03 22:00","2005","08","03","22:00","27.4","","20.6","","66","","","M","","M","","","100.16","","35","","","","NA"
"2005-08-03 23:00","2005","08","03","23:00","26.7","","22.0","","75","","","M","","M","","","100.19","","36","","","","NA"
"2005-08-04 00:00","2005","08","04","00:00","25.6","","22.1","","81","","","M","","M","","","100.21","","35","","","","NA"
"2005-08-04 01:00","2005","08","04","01:00","24.8","","21.6","","82","","","M","","M","","","100.21","","34","","","","NA"
"2005-08-04 02:00","2005","08","04","02:00","24.3","","21.5","","84","","","M","","M","","","100.20","","33","","","","NA"
"2005-08-04 03:00","2005","08","04","03:00","23.6","","21.0","","85","","","M","","M","","","100.19","","32","","","","NA"
"2005-08-04 04:00","2005","08","04","04:00","23.2","","21.2","","89","","","M","","M","","","100.18","","32","","","","NA"
"2005-08-04 05:00","2005","08","04","05:00","22.7","","21.0","","90","","","M","","M","","","100.18","","31","","","","NA"
"2005-08-04 06:00","2005","08","04","06:00","23.1","","21.1","","89","","","M","","M","","","100.21","","32","","","","NA"
"2005-08-04 07:00","2005","08","04","07:00","24.6","","21.5","","83","","","M","","M","","","100.21","","33","","","","NA"
"2005-08-04 08:00","2005","08","04","08:00","26.2","","22.7","","81","","","M","","M","","","100.19","","36","","","","NA"
"2005-08-04 09:00","2005","08","04","09:00","27.6","","23.5","","78","","","M","","M","","","100.18","","38","","","","NA"
"2005-08-04 10:00","2005","08","04","10:00","29.1","","23.5","","72","","","M","","M","","","100.14","","40","","","","NA"
"2005-08-04 11:00","2005","08","04","11:00","30.3","","23.2","","66","","","M","","M","","","100.12","","41","","","","NA"
"2005-08-04 12:00","2005","08","04","12:00","31.5","","23.0","","61","","","M","","M","","","100.04","","42","","","","NA"
"2005-08-04 13:00","2005","08","04","13:00","32.0","","22.4","","57","","","M","","M","","","99.93","","42","","","","NA"
"2005-08-04 14:00","2005","08","04","14:00","32.8","","22.7","","55","","","M","","M","","","99.90","","43","","","","NA"
"2005-08-04 15:00","2005","08","04","15:00","30.9","","22.3","","60","","","M","","M","","","99.92","","41","","","","NA"
"2005-08-04 16:00","2005","08","04","16:00","30.1","","22.5","","64","","","M","","M","","","99.94","","40","","","","NA"
"2005-08-04 17:00","2005","08","04","17:00","29.7","","23.0","","67","","","M","","M","","","99.94","","40","","","","NA"
"2005-08-04 18:00","2005","08","04","18:00","28.7","","22.7","","70","","","M","","M","","","99.88","","39","","","","NA"
"2005-08-04 19:00","2005","08","04","19:00","28.0","","22.6","","73","","","M","","M","","","99.89","","38","","","","NA"
"2005-08-04 20:00","2005","08","04","20:00","27.2","","22.7","","76","","","M","","M","","","99.86","","37","","","","NA"
"2005-08-04 21:00","2005","08","04","21:00","26.5","","22.0","","76","","","M","","M","","","99.89","","36","","","","NA"
"2005-08-04 22:00","2005","08","04","22:00","26.1","","22.1","","79","","","M","","M","","","99.92","","36","","","","NA"
"2005-08-04 23:00","2005","08","04","23:00","27.1","","22.5","","76","","","M","","M","","","99.94","","37","","","","NA"
"2005-08-05 00:00","2005","08","05","00:00","25.4","","22.0","","81","","","M","","M","","","100.05","","35","","","","NA"
"2005-08-05 01:00","2005","08","05","01:00","23.2","","15.1","","60","","","M","","M","","","100.12","","27","","","","NA"
"2005-08-05 02:00","2005","08","05","02:00","22.1","","15.6","","67","","","M","","M","","","100.20","","26","","","","NA"
"2005-08-05 03:00","2005","08","05","03:00","21.6","","15.6","","69","","","M","","M","","","100.20","","26","","","","NA"
"2005-08-05 04:00","2005","08","05","04:00","20.7","","15.3","","71","","","M","","M","","","100.24","","25","","","","NA"
"2005-08-05 05:00","2005","08","05","05:00","20.2","","15.2","","73","","","M","","M","","","100.34","","","","","","NA"
"2005-08-05 06:00","2005","08","05","06:00","20.3","","14.7","","70","","","M","","M","","","100.39","","","","","","NA"
"2005-08-05 07:00","2005","08","05","07:00","21.4","","14.7","","66","","","M","","M","","","100.45","","25","","","","NA"
"2005-08-05 08:00","2005","08","05","08:00","23.1","","14.7","","59","","","M","","M","","","100.52","","27","","","","NA"
"2005-08-05 09:00","2005","08","05","09:00","24.9","","13.4","","49","","","M","","M","","","100.55","","28","","","","NA"
"2005-08-05 10:00","2005","08","05","10:00","26.0","","12.8","","44","","","M","","M","","","100.58","","29","","","","NA"
"2005-08-05 11:00","2005","08","05","11:00","26.8","","11.8","","39","","","M","","M","","","100.61","","29","","","","NA"
"2005-08-05 12:00","2005","08","05","12:00","27.2","","12.1","","39","","","M","","M","","","100.58","","30","","","","NA"
"2005-08-05 13:00","2005","08","05","13:00","28.0","","13.5","","41","","","M","","M","","","100.57","","31","","","","NA"
"2005-08-05 14:00","2005","08","05","14:00","28.0","","12.8","","39","","","M","","M","","","100.56","","31","","","","NA"
"2005-08-05 15:00","2005","08","05","15:00","28.1","","13.7","","41","","","M","","M","","","100.53","","31","","","","NA"
"2005-08-05 16:00","2005","08","05","16:00","28.0","","12.9","","39","","","M","","M","","","100.55","","31","","","","NA"
"2005-08-05 17:00","2005","08","05","17:00","27.3","","12.8","","41","","","M","","M","","","100.55","","30","","","","NA"
"2005-08-05 18:00","2005","08","05","18:00","26.2","","11.3","","39","","","M","","M","","","100.58","","28","","","","NA"
"2005-08-05 19:00","2005","08","05","19:00","24.8","","11.1","","42","","","M","","M","","","100.63","","27","","","","NA"
"2005-08-05 20:00","2005","08","05","20:00","23.7","","11.4","","46","","","M","","M","","","100.68","","26","","","","NA"
"2005-08-05 21:00","2005","08","05","21:00","22.5","","10.9","","48","","","M","","M","","","100.74","","","","","","NA"
"2005-08-05 22:00","2005","08","05","22:00","21.5","","10.7","","50","","","M","","M","","","100.75","","","","","","NA"
"2005-08-05 23:00","2005","08","05","23:00","19.9","","11.2","","57","","","M","","M","","","100.75","","","","","","NA"
"2005-08-06 00:00","2005","08","06","00:00","19.1","","12.0","","63","","","M","","M","","","100.78","","","","","","NA"
"2005-08-06 01:00","2005","08","06","01:00","18.1","","11.3","","64","","","M","","M","","","100.80","","","","","","NA"
"2005-08-06 02:00","2005","08","06","02:00","17.3","","11.5","","69","","","M","","M","","","100.81","","","","","","NA"
"2005-08-06 03:00","2005","08","06","03:00","16.4","","11.7","","74","","","M","","M","","","100.81","","","","","","NA"
"2005-08-06 04:00","2005","08","06","04:00","16.7","","11.4","","71","","","M","","M","","","100.83","","","","","","NA"
"2005-08-06 05:00","2005","08","06","05:00","16.2","","11.4","","73","","","M","","M","","","100.87","","","","","","NA"
"2005-08-06 06:00","2005","08","06","06:00","16.2","","11.9","","76","","","M","","M","","","100.89","","","","","","NA"
"2005-08-06 07:00","2005","08","06","07:00","18.8","","11.7","","63","","","M","","M","","","100.93","","","","","","NA"
"2005-08-06 08:00","2005","08","06","08:00","21.2","","12.1","","56","","","M","","M","","","100.94","","","","","","NA"
"2005-08-06 09:00","2005","08","06","09:00","23.5","","12.0","","48","","","M","","M","","","100.95","","26","","","","NA"
"2005-08-06 10:00","2005","08","06","10:00","25.2","","10.3","","39","","","M","","M","","","100.92","","27","","","","NA"
"2005-08-06 11:00","2005","08","06","11:00","25.9","","12.4","","43","","","M","","M","","","100.88","","28","","","","NA"
"2005-08-06 12:00","2005","08","06","12:00","26.6","","11.8","","40","","","M","","M","","","100.81","","29","","","","NA"
"2005-08-06 13:00","2005","08","06","13:00","26.3","","12.3","","42","","","M","","M","","","100.77","","29","","","","NA"
"2005-08-06 14:00","2005","08","06","14:00","25.8","","12.2","","43","","","M","","M","","","100.76","","28","","","","NA"
"2005-08-06 15:00","2005","08","06","15:00","26.2","","11.1","","39","","","M","","M","","","100.71","","28","","","","NA"
"2005-08-06 16:00","2005","08","06","16:00","26.6","","11.1","","38","","","M","","M","","","100.66","","28","","","","NA"
"2005-08-06 17:00","2005","08","06","17:00","25.9","","11.5","","41","","","M","","M","","","100.61","","28","","","","NA"
"2005-08-06 18:00","2005","08","06","18:00","25.5","","12.3","","44","","","M","","M","","","100.57","","28","","","","NA"
"2005-08-06 19:00","2005","08","06","19:00","24.8","","11.4","","43","","","M","","M","","","100.57","","27","","","","NA"
"2005-08-06 20:00","2005","08","06","20:00","23.5","","12.8","","51","","","M","","M","","","100.56","","26","","","","NA"
"2005-08-06 21:00","2005","08","06","21:00","23.0","","16.3","","66","","","M","","M","","","100.62","","28","","","","NA"
"2005-08-06 22:00","2005","08","06","22:00","22.6","","16.9","","70","","","M","","M","","","100.61","","28","","","","NA"
"2005-08-06 23:00","2005","08","06","23:00","21.5","","17.7","","79","","","M","","M","","","100.60","","27","","","","NA"
"2005-08-07 00:00","2005","08","07","00:00","20.6","","17.8","","84","","","M","","M","","","100.62","","26","","","","NA"
"2005-08-07 01:00","2005","08","07","01:00","19.8","","17.8","","88","","","M","","M","","","100.61","","","","","","NA"
"2005-08-07 02:00","2005","08","07","02:00","19.5","","15.6","","78","","","M","","M","","","100.60","","","","","","NA"
"2005-08-07 03:00","2005","08","07","03:00","20.1","","15.4","","74","","","M","","M","","","100.59","","","","","","NA"
"2005-08-07 04:00","2005","08","07","04:00","20.3","","15.7","","75","","","M","","M","","","100.61","","25","","","","NA"
"2005-08-07 05:00","2005","08","07","05:00","20.1","","15.8","","76","","","M","","M","","","100.63","","25","","","","NA"
"2005-08-07 06:00","2005","08","07","06:00","20.0","","15.7","","76","","","M","","M","","","100.66","","","","","","NA"
"2005-08-07 07:00","2005","08","07","07:00","21.1","","16.4","","75","","","M","","M","","","100.68","","26","","","","NA"
"2005-08-07 08:00","2005","08","07","08:00","22.7","","16.5","","68","","","M","","M","","","100.71","","28","","","","NA"
"2005-08-07 09:00","2005","08","07","09:00","22.7","","17.3","","72","","","M","","M","","","100.73","","28","","","","NA"
"2005-08-07 10:00","2005","08","07","10:00","24.1","","17.7","","67","","","M","","M","","","100.72","","30","","","","NA"
"2005-08-07 11:00","2005","08","07","11:00","26.1","","18.0","","61","","","M","","M","","","100.70","","32","","","","NA"
"2005-08-07 12:00","2005","08","07","12:00","27.1","","16.4","","52","","","M","","M","","","100.67","","32","","","","NA"
"2005-08-07 13:00","2005","08","07","13:00","28.2","","15.3","","45","","","M","","M","","","100.61","","32","","","","NA"
"2005-08-07 14:00","2005","08","07","14:00","28.3","","15.5","","46","","","M","","M","","","100.57","","33","","","","NA"
"2005-08-07 15:00","2005","08","07","15:00","28.5","","15.8","","46","","","M","","M","","","100.51","","33","","","","NA"
"2005-08-07 16:00","2005","08","07","16:00","28.7","","15.2","","44","","","M","","M","","","100.48","","33","","","","NA"
"2005-08-07 17:00","2005","08","07","17:00","28.5","","15.2","","44","","","M","","M","","","100.46","","33","","","","NA"
"2005-08-07 18:00","2005","08","07","18:00","27.6","","16.0","","49","","","M","","M","","","100.43","","32","","","","NA"
"2005-08-07 19:00","2005","08","07","19:00","26.6","","16.3","","53","","","M","","M","","","100.43","","31","","","","NA"
"2005-08-07 20:00","2005","08","07","20:00","25.5","","16.5","","58","","","M","","M","","","100.47","","30","","","","NA"
"2005-08-07 21:00","2005","08","07","21:00","24.4","","16.6","","62","","","M","","M","","","100.52","","29","","","","NA"
"2005-08-07 22:00","2005","08","07","22:00","23.5","","16.0","","63","","","M","","M","","","100.53","","28","","","","NA"
"2005-08-07 23:00","2005","08","07","23:00","23.0","","16.4","","66","","","M","","M","","","100.55","","28","","","","NA"
"2005-08-08 00:00","2005","08","08","00:00","22.7","","17.0","","70","","","M","","M","","","100.55","","28","","","","NA"
"2005-08-08 01:00","2005","08","08","01:00","22.6","","16.5","","68","","","M","","M","","","100.56","","28","","","","NA"
"2005-08-08 02:00","2005","08","08","02:00","21.3","","16.6","","75","","","M","","M","","","100.58","","26","","","","NA"
"2005-08-08 03:00","2005","08","08","03:00","20.8","","16.4","","76","","","M","","M","","","100.58","","26","","","","NA"
"2005-08-08 04:00","2005","08","08","04:00","20.5","","16.5","","78","","","M","","M","","","100.61","","25","","","","NA"
"2005-08-08 05:00","2005","08","08","05:00","20.1","","16.8","","81","","","M","","M","","","100.64","","25","","","","NA"
"2005-08-08 06:00","2005","08","08","06:00","20.5","","17.6","","83","","","M","","M","","","100.65","","26","","","","NA"
"2005-08-08 07:00","2005","08","08","07:00","22.6","","17.9","","75","","","M","","M","","","100.67","","29","","","","NA"
"2005-08-08 08:00","2005","08","08","08:00","25.2","","18.7","","67","","","M","","M","","","100.66","","32","","","","NA"
"2005-08-08 09:00","2005","08","08","09:00","26.1","","19.0","","65","","","M","","M","","","100.66","","33","","","","NA"
"2005-08-08 10:00","2005","08","08","10:00","26.9","","18.8","","61","","","M","","M","","","100.69","","34","","","","NA"
"2005-08-08 11:00","2005","08","08","11:00","27.7","","18.9","","59","","","M","","M","","","100.68","","34","","","","NA"
"2005-08-08 12:00","2005","08","08","12:00","28.2","","17.9","","54","","","M","","M","","","100.61","","34","","","","NA"
"2005-08-08 13:00","2005","08","08","13:00","29.1","","17.3","","49","","","M","","M","","","100.60","","35","","","","NA"
"2005-08-08 14:00","2005","08","08","14:00","29.4","","15.0","","42","","","M","","M","","","100.54","","33","","","","NA"
"2005-08-08 15:00","2005","08","08","15:00","30.7","","17.3","","45","","","M","","M","","","100.48","","36","","","","NA"
"2005-08-08 16:00","2005","08","08","16:00","30.0","","16.5","","44","","","M","","M","","","100.42","","35","","","","NA"
"2005-08-08 17:00","2005","08","08","17:00","28.1","","17.4","","52","","","M","","M","","","100.37","","34","","","","NA"
"2005-08-08 18:00","2005","08","08","18:00","26.7","","17.9","","59","","","M","","M","","","100.35","","33","","","","NA"
"2005-08-08 19:00","2005","08","08","19:00","26.1","","18.9","","65","","","M","","M","","","100.34","","33","","","","NA"
"2005-08-08 20:00","2005","08","08","20:00","25.7","","17.5","","61","","","M","","M","","","100.36","","31","","","","NA"
"2005-08-08 21:00","2005","08","08","21:00","25.2","","17.2","","61","","","M","","M","","","100.40","","31","","","","NA"
"2005-08-08 22:00","2005","08","08","22:00","23.5","","18.4","","73","","","M","","M","","","100.40","","30","","","","NA"
"2005-08-08 23:00","2005","08","08","23:00","23.2","","18.1","","73","","","M","","M","","","100.41","","29","","","","NA"
"2005-08-09 00:00","2005","08","09","00:00","22.3","","18.0","","77","","","M","","M","","","100.41","","28","","","","NA"
"2005-08-09 01:00","2005","08","09","01:00","21.8","","17.6","","77","","","M","","M","","","100.38","","28","","","","NA"
"2005-08-09 02:00","2005","08","09","02:00","21.3","","17.2","","77","","","M","","M","","","100.37","","27","","","","NA"
"2005-08-09 03:00","2005","08","09","03:00","22.4","","15.7","","66","","","M","","M","","","100.35","","27","","","","NA"
"2005-08-09 04:00","2005","08","09","04:00","21.0","","15.7","","72","","","M","","M","","","100.34","","25","","","","NA"
"2005-08-09 05:00","2005","08","09","05:00","20.8","","16.3","","75","","","M","","M","","","100.37","","26","","","","NA"
"2005-08-09 06:00","2005","08","09","06:00","21.6","","18.0","","80","","","M","","M","","","100.38","","28","","","","NA"
"2005-08-09 07:00","2005","08","09","07:00","23.3","","20.5","","84","","","M","","M","","","100.37","","31","","","","NA"
"2005-08-09 08:00","2005","08","09","08:00","23.8","","21.3","","86","","","M","","M","","","100.37","","32","","","","NA"
"2005-08-09 09:00","2005","08","09","09:00","25.1","","21.8","","82","","","M","","M","","","100.35","","34","","","","NA"
"2005-08-09 10:00","2005","08","09","10:00","27.3","","22.2","","74","","","M","","M","","","100.35","","37","","","","NA"
"2005-08-09 11:00","2005","08","09","11:00","29.5","","21.7","","63","","","M","","M","","","100.35","","39","","","","NA"
"2005-08-09 12:00","2005","08","09","12:00","30.6","","21.4","","58","","","M","","M","","","100.33","","39","","","","NA"
"2005-08-09 13:00","2005","08","09","13:00","31.8","","20.5","","51","","","M","","M","","","100.24","","40","","","","NA"
"2005-08-09 14:00","2005","08","09","14:00","32.0","","20.4","","50","","","M","","M","","","100.17","","40","","","","NA"
"2005-08-09 15:00","2005","08","09","15:00","31.7","","20.2","","51","","","M","","M","","","100.10","","39","","","","NA"
"2005-08-09 16:00","2005","08","09","16:00","31.2","","20.2","","52","","","M","","M","","","100.06","","39","","","","NA"
"2005-08-09 17:00","2005","08","09","17:00","29.7","","21.3","","61","","","M","","M","","","100.02","","38","","","","NA"
"2005-08-09 18:00","2005","08","09","18:00","29.0","","20.8","","61","","","M","","M","","","100.04","","37","","","","NA"
"2005-08-09 19:00","2005","08","09","19:00","27.7","","20.9","","67","","","M","","M","","","100.02","","36","","","","NA"
"2005-08-09 20:00","2005","08","09","20:00","27.7","","21.2","","68","","","M","","M","","","100.08","","36","","","","NA"
"2005-08-09 21:00","2005","08","09","21:00","27.8","","20.6","","65","","","M","","M","","","100.12","","36","","","","NA"
"2005-08-09 22:00","2005","08","09","22:00","27.1","","20.2","","66","","","M","","M","","","100.10","","35","","","","NA"
"2005-08-09 23:00","2005","08","09","23:00","25.6","","19.9","","71","","","M","","M","","","100.09","","33","","","","NA"
"2005-08-10 00:00","2005","08","10","00:00","25.1","","19.3","","70","","","M","","M","","","100.04","","32","","","","NA"
"2005-08-10 01:00","2005","08","10","01:00","25.6","","19.3","","68","","","M","","M","","","100.06","","33","","","","NA"
"2005-08-10 02:00","2005","08","10","02:00","25.6","","19.1","","67","","","M","","M","","","100.05","","32","","","","NA"
"2005-08-10 03:00","2005","08","10","03:00","23.7","","19.3","","76","","","M","","M","","","100.00","","31","","","","NA"
"2005-08-10 04:00","2005","08","10","04:00","23.2","","19.6","","80","","","M","","M","","","99.99","","30","","","","NA"
"2005-08-10 05:00","2005","08","10","05:00","23.0","","19.7","","82","","","M","","M","","","99.99","","30","","","","NA"
"2005-08-10 06:00","2005","08","10","06:00","23.2","","20.3","","84","","","M","","M","","","99.99","","31","","","","NA"
"2005-08-10 07:00","2005","08","10","07:00","24.0","","20.9","","83","","","M","","M","","","100.00","","32","","","","NA"
"2005-08-10 08:00","2005","08","10","08:00","25.1","","21.4","","80","","","M","","M","","","100.00","","34","","","","NA"
"2005-08-10 09:00","2005","08","10","09:00","26.3","","22.3","","79","","","M","","M","","","99.97","","36","","","","NA"
"2005-08-10 10:00","2005","08","10","10:00","27.9","","22.9","","74","","","M","","M","","","99.94","","38","","","","NA"
"2005-08-10 11:00","2005","08","10","11:00","29.9","","22.8","","66","","","M","","M","","","99.87","","40","","","","NA"
"2005-08-10 12:00","2005","08","10","12:00","31.0","","22.0","","59","","","M","","M","","","99.79","","40","","","","NA"
"2005-08-10 13:00","2005","08","10","13:00","32.1","","21.0","","52","","","M","","M","","","99.70","","41","","","","NA"
"2005-08-10 14:00","2005","08","10","14:00","22.4","","21.1","","92","","","M","","M","","","99.89","","31","","","","NA"
"2005-08-10 15:00","2005","08","10","15:00","22.8","","21.7","","94","","","M","","M","","","99.84","","32","","","","NA"
"2005-08-10 16:00","2005","08","10","16:00","24.8","","21.2","","80","","","M","","M","","","99.83","","33","","","","NA"
"2005-08-10 17:00","2005","08","10","17:00","23.9","","20.8","","83","","","M","","M","","","99.82","","32","","","","NA"
"2005-08-10 18:00","2005","08","10","18:00","24.5","","20.7","","79","","","M","","M","","","99.81","","33","","","","NA"
"2005-08-10 19:00","2005","08","10","19:00","24.1","","21.7","","86","","","M","","M","","","99.85","","33","","","","NA"
"2005-08-10 20:00","2005","08","10","20:00","22.6","","21.6","","94","","","M","","M","","","99.89","","32","","","","NA"
"2005-08-10 21:00","2005","08","10","21:00","22.2","","21.6","","96","","","M","","M","","","99.94","","31","","","","NA"
"2005-08-10 22:00","2005","08","10","22:00","22.5","","21.8","","96","","","M","","M","","","99.94","","32","","","","NA"
"2005-08-10 23:00","2005","08","10","23:00","22.5","","21.6","","95","","","M","","M","","","99.97","","31","","","","NA"
"2005-08-11 00:00","2005","08","11","00:00","22.1","","20.1","","88","","","M","","M","","","99.98","","30","","","","NA"
"2005-08-11 01:00","2005","08","11","01:00","21.3","","18.9","","86","","","M","","M","","","99.99","","28","","","","NA"
"2005-08-11 02:00","2005","08","11","02:00","20.8","","17.9","","83","","","M","","M","","","100.01","","27","","","","NA"
"2005-08-11 03:00","2005","08","11","03:00","20.9","","17.5","","81","","","M","","M","","","100.02","","27","","","","NA"
"2005-08-11 04:00","2005","08","11","04:00","20.5","","17.0","","80","","","M","","M","","","100.03","","26","","","","NA"
"2005-08-11 05:00","2005","08","11","05:00","20.0","","17.0","","83","","","M","","M","","","100.04","","25","","","","NA"
"2005-08-11 06:00","2005","08","11","06:00","19.7","","17.3","","86","","","M","","M","","","100.16","","","","","","NA"
"2005-08-11 07:00","2005","08","11","07:00","21.1","","17.7","","81","","","M","","M","","","100.22","","27","","","","NA"
"2005-08-11 08:00","2005","08","11","08:00","22.8","","17.4","","72","","","M","","M","","","100.26","","28","","","","NA"
"2005-08-11 09:00","2005","08","11","09:00","24.1","","17.0","","65","","","M","","M","","","100.27","","29","","","","NA"
"2005-08-11 10:00","2005","08","11","10:00","26.1","","13.1","","45","","","M","","M","","","100.26","","29","","","","NA"
"2005-08-11 11:00","2005","08","11","11:00","27.1","","13.1","","42","","","M","","M","","","100.28","","30","","","","NA"
"2005-08-11 12:00","2005","08","11","12:00","27.7","","12.5","","39","","","M","","M","","","100.26","","30","","","","NA"
"2005-08-11 13:00","2005","08","11","13:00","28.1","","16.0","","48","","","M","","M","","","100.22","","33","","","","NA"
"2005-08-11 14:00","2005","08","11","14:00","27.1","","15.9","","50","","","M","","M","","","100.22","","32","","","","NA"
"2005-08-11 15:00","2005","08","11","15:00","27.1","","13.6","","43","","","M","","M","","","100.23","","30","","","","NA"
"2005-08-11 16:00","2005","08","11","16:00","26.7","","15.1","","49","","","M","","M","","","100.22","","31","","","","NA"
"2005-08-11 17:00","2005","08","11","17:00","26.6","","14.1","","46","","","M","","M","","","100.23","","30","","","","NA"
"2005-08-11 18:00","2005","08","11","18:00","26.5","","12.1","","41","","","M","","M","","","100.25","","29","","","","NA"
"2005-08-11 19:00","2005","08","11","19:00","25.3","","16.3","","57","","","M","","M","","","100.28","","30","","","","NA"
"2005-08-11 20:00","2005","08","11","20:00","24.1","","17.1","","65","","","M","","M","","","100.27","","29","","","","NA"
"2005-08-11 21:00","2005","08","11","21:00","23.3","","16.2","","64","","","M","","M","","","100.29","","28","","","","NA"
"2005-08-11 22:00","2005","08","11","22:00","22.7","","16.3","","67","","","M","","M","","","100.26","","28","","","","NA"
"2005-08-11 23:00","2005","08","11","23:00","22.5","","16.1","","67","","","M","","M","","","100.30","","27","","","","NA"
"2005-08-12 00:00","2005","08","12","00:00","22.1","","15.4","","66","","","M","","M","","","100.30","","26","","","","NA"
"2005-08-12 01:00","2005","08","12","01:00","22.1","","15.2","","65","","","M","","M","","","100.28","","26","","","","NA"
"2005-08-12 02:00","2005","08","12","02:00","21.8","","15.6","","68","","","M","","M","","","100.20","","26","","","","NA"
"2005-08-12 03:00","2005","08","12","03:00","21.9","","15.8","","68","","","M","","M","","","100.18","","26","","","","NA"
"2005-08-12 04:00","2005","08","12","04:00","21.7","","15.0","","66","","","M","","M","","","100.18","","26","","","","NA"
"2005-08-12 05:00","2005","08","12","05:00","21.5","","16.2","","72","","","M","","M","","","100.15","","26","","","","NA"
"2005-08-12 06:00","2005","08","12","06:00","21.8","","16.2","","70","","","M","","M","","","100.13","","27","","","","NA"
"2005-08-12 07:00","2005","08","12","07:00","22.1","","17.4","","75","","","M","","M","","","100.10","","28","","","","NA"
"2005-08-12 08:00","2005","08","12","08:00","21.6","","18.5","","83","","","M","","M","","","100.04","","28","","","","NA"
"2005-08-12 09:00","2005","08","12","09:00","21.5","","20.3","","93","","","M","","M","","","100.07","","29","","","","NA"
"2005-08-12 10:00","2005","08","12","10:00","21.6","","19.7","","89","","","M","","M","","","100.00","","29","","","","NA"
"2005-08-12 11:00","2005","08","12","11:00","21.6","","20.0","","91","","","M","","M","","","99.92","","29","","","","NA"
"2005-08-12 12:00","2005","08","12","12:00","21.2","","20.5","","96","","","M","","M","","","99.87","","29","","","","NA"
"2005-08-12 13:00","2005","08","12","13:00","21.8","","21.2","","96","","","M","","M","","","99.81","","30","","","","NA"
"2005-08-12 14:00","2005","08","12","14:00","23.1","","22.0","","94","","","M","","M","","","99.73","","32","","","","NA"
"2005-08-12 15:00","2005","08","12","15:00","23.6","","22.8","","95","","","M","","M","","","99.68","","34","","","","NA"
"2005-08-12 16:00","2005","08","12","16:00","25.0","","23.3","","90","","","M","","M","","","99.60","","36","","","","NA"
"2005-08-12 17:00","2005","08","12","17:00","25.3","","23.6","","90","","","M","","M","","","99.56","","36","","","","NA"
"2005-08-12 18:00","2005","08","12","18:00","25.8","","23.8","","89","","","M","","M","","","99.54","","37","","","","NA"
"2005-08-12 19:00","2005","08","12","19:00","25.1","","23.3","","90","","","M","","M","","","99.54","","36","","","","NA"
"2005-08-12 20:00","2005","08","12","20:00","24.1","","23.0","","94","","","M","","M","","","99.57","","34","","","","NA"
"2005-08-12 21:00","2005","08","12","21:00","25.5","","21.9","","81","","","M","","M","","","99.65","","35","","","","NA"
"2005-08-12 22:00","2005","08","12","22:00","24.5","","21.5","","83","","","M","","M","","","99.67","","33","","","","NA"
"2005-08-12 23:00","2005","08","12","23:00","24.9","","21.2","","80","","","M","","M","","","99.71","","33","","","","NA"
"2005-08-13 00:00","2005","08","13","00:00","23.9","","20.9","","83","","","M","","M","","","99.73","","32","","","","NA"
"2005-08-13 01:00","2005","08","13","01:00","23.6","","21.0","","85","","","M","","M","","","99.79","","32","","","","NA"
"2005-08-13 02:00","2005","08","13","02:00","22.8","","20.8","","88","","","M","","M","","","99.78","","31","","","","NA"
"2005-08-13 03:00","2005","08","13","03:00","22.7","","21.0","","90","","","M","","M","","","99.80","","31","","","","NA"
"2005-08-13 04:00","2005","08","13","04:00","22.7","","20.8","","89","","","M","","M","","","99.82","","31","","","","NA"
"2005-08-13 05:00","2005","08","13","05:00","22.3","","20.6","","90","","","M","","M","","","99.86","","30","","","","NA"
"2005-08-13 06:00","2005","08","13","06:00","22.4","","20.5","","89","","","M","","M","","","99.91","","30","","","","NA"
"2005-08-13 07:00","2005","08","13","07:00","22.9","","20.3","","85","","","M","","M","","","99.93","","31","","","","NA"
"2005-08-13 08:00","2005","08","13","08:00","23.4","","20.3","","83","","","M","","M","","","100.00","","31","","","","NA"
"2005-08-13 09:00","2005","08","13","09:00","23.6","","18.4","","73","","","M","","M","","","100.02","","30","","","","NA"
"2005-08-13 10:00","2005","08","13","10:00","24.6","","16.6","","61","","","M","","M","","","100.04","","30","","","","NA"
"2005-08-13 11:00","2005","08","13","11:00","25.6","","17.5","","61","","","M","","M","","","99.99","","31","","","","NA"
"2005-08-13 12:00","2005","08","13","12:00","26.3","","16.7","","56","","","M","","M","","","99.97","","31","","","","NA"
"2005-08-13 13:00","2005","08","13","13:00","26.2","","17.0","","57","","","M","","M","","","99.97","","31","","","","NA"
"2005-08-13 14:00","2005","08","13","14:00","25.9","","16.8","","57","","","M","","M","","","99.97","","31","","","","NA"
"2005-08-13 15:00","2005","08","13","15:00","26.8","","18.2","","59","","","M","","M","","","99.93","","33","","","","NA"
"2005-08-13 16:00","2005","08","13","16:00","26.1","","17.8","","60","","","M","","M","","","99.87","","32","","","","NA"
"2005-08-13 17:00","2005","08","13","17:00","26.1","","18.6","","63","","","M","","M","","","99.87","","33","","","","NA"
"2005-08-13 18:00","2005","08","13","18:00","24.9","","18.7","","68","","","M","","M","","","99.84","","31","","","","NA"
"2005-08-13 19:00","2005","08","13","19:00","24.8","","17.9","","66","","","M","","M","","","99.91","","31","","","","NA"
"2005-08-13 20:00","2005","08","13","20:00","24.3","","17.8","","67","","","M","","M","","","99.94","","30","","","","NA"
"2005-08-13 21:00","2005","08","13","21:00","23.1","","17.6","","71","","","M","","M","","","99.96","","29","","","","NA"
"2005-08-13 22:00","2005","08","13","22:00","22.6","","17.9","","75","","","M","","M","","","99.97","","29","","","","NA"
"2005-08-13 23:00","2005","08","13","23:00","23.4","","17.8","","71","","","M","","M","","","99.97","","29","","","","NA"
"2005-08-14 00:00","2005","08","14","00:00","23.3","","15.8","","63","","","M","","M","","","100.00","","28","","","","NA"
"2005-08-14 01:00","2005","08","14","01:00","23.0","","14.3","","58","","","M","","M","","","99.93","","27","","","","NA"
"2005-08-14 02:00","2005","08","14","02:00","22.6","","14.8","","61","","","M","","M","","","99.94","","26","","","","NA"
"2005-08-14 03:00","2005","08","14","03:00","22.1","","14.9","","64","","","M","","M","","","99.92","","26","","","","NA"
"2005-08-14 04:00","2005","08","14","04:00","21.6","","15.4","","68","","","M","","M","","","99.90","","26","","","","NA"
"2005-08-14 05:00","2005","08","14","05:00","21.6","","16.1","","71","","","M","","M","","","100.03","","26","","","","NA"
"2005-08-14 06:00","2005","08","14","06:00","21.5","","16.1","","71","","","M","","M","","","100.04","","26","","","","NA"
"2005-08-14 07:00","2005","08","14","07:00","21.6","","15.6","","69","","","M","","M","","","100.13","","26","","","","NA"
"2005-08-14 08:00","2005","08","14","08:00","19.8","","17.3","","86","","","M","","M","","","100.20","","","","","","NA"
"2005-08-14 09:00","2005","08","14","09:00","18.9","","17.8","","93","","","M","","M","","","100.22","","","","","","NA"
"2005-08-14 10:00","2005","08","14","10:00","18.8","","17.7","","93","","","M","","M","","","100.23","","","","","","NA"
"2005-08-14 11:00","2005","08","14","11:00","19.5","","17.2","","87","","","M","","M","","","100.22","","","","","","NA"
"2005-08-14 12:00","2005","08","14","12:00","20.1","","17.3","","84","","","M","","M","","","100.28","","26","","","","NA"
"2005-08-14 13:00","2005","08","14","13:00","19.9","","17.8","","88","","","M","","M","","","100.27","","","","","","NA"
"2005-08-14 14:00","2005","08","14","14:00","20.3","","18.0","","87","","","M","","M","","","100.28","","26","","","","NA"
"2005-08-14 15:00","2005","08","14","15:00","20.9","","18.0","","83","","","M","","M","","","100.29","","27","","","","NA"
"2005-08-14 16:00","2005","08","14","16:00","21.0","","18.3","","85","","","M","","M","","","100.30","","27","","","","NA"
"2005-08-14 17:00","2005","08","14","17:00","21.6","","18.0","","80","","","M","","M","","","100.30","","28","","","","NA"
"2005-08-14 18:00","2005","08","14","18:00","21.1","","17.6","","80","","","M","","M","","","100.34","","27","","","","NA"
"2005-08-14 19:00","2005","08","14","19:00","20.4","","17.7","","84","","","M","","M","","","100.37","","26","","","","NA"
"2005-08-14 20:00","2005","08","14","20:00","20.4","","18.0","","86","","","M","","M","","","100.41","","26","","","","NA"
"2005-08-14 21:00","2005","08","14","21:00","20.4","","18.3","","88","","","M","","M","","","100.43","","27","","","","NA"
"2005-08-14 22:00","2005","08","14","22:00","20.3","","18.5","","89","","","M","","M","","","100.46","","27","","","","NA"
"2005-08-14 23:00","2005","08","14","23:00","19.7","","18.2","","91","","","M","","M","","","100.46","","","","","","NA"
"2005-08-15 00:00","2005","08","15","00:00","20.1","","13.8","","67","","","M","","M","","","100.50","","","","","","NA"
"2005-08-15 01:00","2005","08","15","01:00","19.2","","13.2","","68","","","M","","M","","","100.48","","","","","","NA"
"2005-08-15 02:00","2005","08","15","02:00","18.4","","13.5","","73","","","M","","M","","","100.49","","","","","","NA"
"2005-08-15 03:00","2005","08","15","03:00","17.1","","13.6","","80","","","M","","M","","","100.53","","","","","","NA"
"2005-08-15 04:00","2005","08","15","04:00","15.8","","13.5","","86","","","M","","M","","","100.56","","","","","","NA"
"2005-08-15 05:00","2005","08","15","05:00","15.7","","13.7","","88","","","M","","M","","","100.60","","","","","","NA"
"2005-08-15 06:00","2005","08","15","06:00","15.4","","14.0","","91","","","M","","M","","","100.63","","","","","","NA"
"2005-08-15 07:00","2005","08","15","07:00","17.9","","15.1","","84","","","M","","M","","","100.66","","","","","","NA"
"2005-08-15 08:00","2005","08","15","08:00","20.5","","16.5","","78","","","M","","M","","","100.68","","25","","","","NA"
"2005-08-15 09:00","2005","08","15","09:00","22.4","","16.1","","68","","","M","","M","","","100.69","","27","","","","NA"
"2005-08-15 10:00","2005","08","15","10:00","24.4","","17.5","","65","","","M","","M","","","100.70","","30","","","","NA"
"2005-08-15 11:00","2005","08","15","11:00","26.0","","13.6","","46","","","M","","M","","","100.69","","29","","","","NA"
"2005-08-15 12:00","2005","08","15","12:00","27.2","","16.4","","52","","","M","","M","","","100.66","","32","","","","NA"
"2005-08-15 13:00","2005","08","15","13:00","26.4","","17.8","","59","","","M","","M","","","100.66","","32","","","","NA"
"2005-08-15 14:00","2005","08","15","14:00","26.9","","17.5","","56","","","M","","M","","","100.62","","33","","","","NA"
"2005-08-15 15:00","2005","08","15","15:00","25.7","","16.3","","56","","","M","","M","","","100.58","","31","","","","NA"
"2005-08-15 16:00","2005","08","15","16:00","26.4","","15.5","","51","","","M","","M","","","100.59","","31","","","","NA"
"2005-08-15 17:00","2005","08","15","17:00","25.6","","15.0","","52","","","M","","M","","","100.60","","30","","","","NA"
"2005-08-15 18:00","2005","08","15","18:00","24.9","","14.9","","54","","","M","","M","","","100.58","","29","","","","NA"
"2005-08-15 19:00","2005","08","15","19:00","24.0","","15.3","","58","","","M","","M","","","100.56","","28","","","","NA"
"2005-08-15 20:00","2005","08","15","20:00","23.0","","13.9","","57","","","M","","M","","","100.57","","26","","","","NA"
"2005-08-15 21:00","2005","08","15","21:00","23.5","","11.3","","46","","","M","","M","","","100.63","","25","","","","NA"
"2005-08-15 22:00","2005","08","15","22:00","21.9","","10.8","","49","","","M","","M","","","100.65","","","","","","NA"
"2005-08-15 23:00","2005","08","15","23:00","21.2","","10.7","","51","","","M","","M","","","100.65","","","","","","NA"
"2005-08-16 00:00","2005","08","16","00:00","21.0","","11.4","","54","","","M","","M","","","100.64","","","","","","NA"
"2005-08-16 01:00","2005","08","16","01:00","19.8","","11.7","","60","","","M","","M","","","100.61","","","","","","NA"
"2005-08-16 02:00","2005","08","16","02:00","19.3","","12.3","","64","","","M","","M","","","100.58","","","","","","NA"
"2005-08-16 03:00","2005","08","16","03:00","18.5","","12.5","","68","","","M","","M","","","100.57","","","","","","NA"
"2005-08-16 04:00","2005","08","16","04:00","17.7","","12.8","","73","","","M","","M","","","100.58","","","","","","NA"
"2005-08-16 05:00","2005","08","16","05:00","16.6","","13.0","","79","","","M","","M","","","100.61","","","","","","NA"
"2005-08-16 06:00","2005","08","16","06:00","16.5","","13.2","","81","","","M","","M","","","100.61","","","","","","NA"
"2005-08-16 07:00","2005","08","16","07:00","18.3","","13.8","","75","","","M","","M","","","100.63","","","","","","NA"
"2005-08-16 08:00","2005","08","16","08:00","20.7","","14.5","","68","","","M","","M","","","100.64","","","","","","NA"
"2005-08-16 09:00","2005","08","16","09:00","23.1","","11.7","","49","","","M","","M","","","100.60","","25","","","","NA"
"2005-08-16 10:00","2005","08","16","10:00","25.2","","12.6","","45","","","M","","M","","","100.58","","28","","","","NA"
"2005-08-16 11:00","2005","08","16","11:00","25.7","","11.1","","40","","","M","","M","","","100.54","","28","","","","NA"
"2005-08-16 12:00","2005","08","16","12:00","25.7","","9.9","","37","","","M","","M","","","100.50","","27","","","","NA"
"2005-08-16 13:00","2005","08","16","13:00","25.7","","11.3","","41","","","M","","M","","","100.46","","28","","","","NA"
"2005-08-16 14:00","2005","08","16","14:00","23.6","","13.2","","52","","","M","","M","","","100.43","","27","","","","NA"
"2005-08-16 15:00","2005","08","16","15:00","26.0","","13.0","","45","","","M","","M","","","100.35","","29","","","","NA"
"2005-08-16 16:00","2005","08","16","16:00","26.5","","11.2","","38","","","M","","M","","","100.29","","28","","","","NA"
"2005-08-16 17:00","2005","08","16","17:00","25.4","","13.6","","48","","","M","","M","","","100.26","","29","","","","NA"
"2005-08-16 18:00","2005","08","16","18:00","26.9","","14.6","","47","","","M","","M","","","100.23","","31","","","","NA"
"2005-08-16 19:00","2005","08","16","19:00","26.5","","15.4","","51","","","M","","M","","","100.22","","31","","","","NA"
"2005-08-16 20:00","2005","08","16","20:00","25.1","","16.2","","58","","","M","","M","","","100.27","","30","","","","NA"
"2005-08-16 21:00","2005","08","16","21:00","23.8","","14.6","","56","","","M","","M","","","100.34","","28","","","","NA"
"2005-08-16 22:00","2005","08","16","22:00","21.8","","14.2","","62","","","M","","M","","","100.34","","25","","","","NA"
"2005-08-16 23:00","2005","08","16","23:00","21.2","","14.8","","67","","","M","","M","","","100.34","","25","","","","NA"
"2005-08-17 00:00","2005","08","17","00:00","20.2","","14.7","","71","","","M","","M","","","100.36","","","","","","NA"
"2005-08-17 01:00","2005","08","17","01:00","19.8","","13.3","","66","","","M","","M","","","100.35","","","","","","NA"
"2005-08-17 02:00","2005","08","17","02:00","19.7","","12.1","","62","","","M","","M","","","100.35","","","","","","NA"
"2005-08-17 03:00","2005","08","17","03:00","19.7","","12.2","","62","","","M","","M","","","100.35","","","","","","NA"
"2005-08-17 04:00","2005","08","17","04:00","19.0","","13.5","","70","","","M","","M","","","100.34","","","","","","NA"
"2005-08-17 05:00","2005","08","17","05:00","19.0","","14.6","","76","","","M","","M","","","100.34","","","","","","NA"
"2005-08-17 06:00","2005","08","17","06:00","19.0","","14.4","","75","","","M","","M","","","100.37","","","","","","NA"
"2005-08-17 07:00","2005","08","17","07:00","19.5","","13.7","","69","","","M","","M","","","100.39","","","","","","NA"
"2005-08-17 08:00","2005","08","17","08:00","20.9","","12.9","","60","","","M","","M","","","100.39","","","","","","NA"
"2005-08-17 09:00","2005","08","17","09:00","22.3","","12.5","","54","","","M","","M","","","100.38","","25","","","","NA"
"2005-08-17 10:00","2005","08","17","10:00","23.7","","14.2","","55","","","M","","M","","","100.41","","27","","","","NA"
"2005-08-17 11:00","2005","08","17","11:00","24.1","","14.4","","55","","","M","","M","","","100.42","","28","","","","NA"
"2005-08-17 12:00","2005","08","17","12:00","25.0","","14.0","","50","","","M","","M","","","100.40","","28","","","","NA"
"2005-08-17 13:00","2005","08","17","13:00","26.2","","11.7","","40","","","M","","M","","","100.40","","28","","","","NA"
"2005-08-17 14:00","2005","08","17","14:00","23.6","","15.2","","59","","","M","","M","","","100.38","","28","","","","NA"
"2005-08-17 15:00","2005","08","17","15:00","23.8","","14.0","","54","","","M","","M","","","100.37","","27","","","","NA"
"2005-08-17 16:00","2005","08","17","16:00","24.9","","14.7","","53","","","M","","M","","","100.36","","29","","","","NA"
"2005-08-17 17:00","2005","08","17","17:00","24.3","","14.3","","54","","","M","","M","","","100.37","","28","","","","NA"
"2005-08-17 18:00","2005","08","17","18:00","23.3","","13.7","","55","","","M","","M","","","100.35","","26","","","","NA"
"2005-08-17 19:00","2005","08","17","19:00","22.4","","15.3","","64","","","M","","M","","","100.36","","27","","","","NA"
"2005-08-17 20:00","2005","08","17","20:00","21.9","","14.2","","62","","","M","","M","","","100.41","","25","","","","NA"
"2005-08-17 21:00","2005","08","17","21:00","21.5","","10.4","","49","","","M","","M","","","100.46","","","","","","NA"
"2005-08-17 22:00","2005","08","17","22:00","20.4","","9.8","","51","","","M","","M","","","100.47","","","","","","NA"
"2005-08-17 23:00","2005","08","17","23:00","19.7","","9.8","","53","","","M","","M","","","100.49","","","","","","NA"
"2005-08-18 00:00","2005","08","18","00:00","19.3","","10.5","","57","","","M","","M","","","100.48","","","","","","NA"
"2005-08-18 01:00","2005","08","18","01:00","18.8","","11.3","","62","","","M","","M","","","100.47","","","","","","NA"
"2005-08-18 02:00","2005","08","18","02:00","18.7","","11.2","","62","","","M","","M","","","100.46","","","","","","NA"
"2005-08-18 03:00","2005","08","18","03:00","18.5","","11.0","","62","","","M","","M","","","100.46","","","","","","NA"
"2005-08-18 04:00","2005","08","18","04:00","18.3","","11.5","","65","","","M","","M","","","100.46","","","","","","NA"
"2005-08-18 05:00","2005","08","18","05:00","18.1","","12.1","","68","","","M","","M","","","100.44","","","","","","NA"
"2005-08-18 06:00","2005","08","18","06:00","17.8","","12.7","","72","","","M","","M","","","100.48","","","","","","NA"
"2005-08-18 07:00","2005","08","18","07:00","18.5","","14.7","","79","","","M","","M","","","100.48","","","","","","NA"
"2005-08-18 08:00","2005","08","18","08:00","19.9","","16.3","","80","","","M","","M","","","100.51","","","","","","NA"
"2005-08-18 09:00","2005","08","18","09:00","20.8","","16.6","","77","","","M","","M","","","100.50","","26","","","","NA"
"2005-08-18 10:00","2005","08","18","10:00","21.7","","16.7","","73","","","M","","M","","","100.52","","27","","","","NA"
"2005-08-18 11:00","2005","08","18","11:00","22.7","","17.0","","70","","","M","","M","","","100.50","","28","","","","NA"
"2005-08-18 12:00","2005","08","18","12:00","22.1","","17.0","","73","","","M","","M","","","100.42","","27","","","","NA"
"2005-08-18 13:00","2005","08","18","13:00","22.2","","17.3","","74","","","M","","M","","","100.41","","28","","","","NA"
"2005-08-18 14:00","2005","08","18","14:00","22.3","","17.6","","75","","","M","","M","","","100.35","","28","","","","NA"
"2005-08-18 15:00","2005","08","18","15:00","23.1","","17.5","","71","","","M","","M","","","100.32","","29","","","","NA"
"2005-08-18 16:00","2005","08","18","16:00","22.3","","16.3","","69","","","M","","M","","","100.28","","27","","","","NA"
"2005-08-18 17:00","2005","08","18","17:00","22.5","","16.1","","67","","","M","","M","","","100.23","","27","","","","NA"
"2005-08-18 18:00","2005","08","18","18:00","21.7","","16.5","","72","","","M","","M","","","100.19","","27","","","","NA"
"2005-08-18 19:00","2005","08","18","19:00","21.3","","16.8","","76","","","M","","M","","","100.18","","26","","","","NA"
"2005-08-18 20:00","2005","08","18","20:00","21.1","","16.7","","76","","","M","","M","","","100.18","","26","","","","NA"
"2005-08-18 21:00","2005","08","18","21:00","21.4","","17.1","","76","","","M","","M","","","100.21","","27","","","","NA"
"2005-08-18 22:00","2005","08","18","22:00","21.6","","17.6","","78","","","M","","M","","","100.19","","27","","","","NA"
"2005-08-18 23:00","2005","08","18","23:00","21.5","","17.3","","77","","","M","","M","","","100.16","","27","","","","NA"
"2005-08-19 00:00","2005","08","19","00:00","21.4","","17.5","","78","","","M","","M","","","100.11","","27","","","","NA"
"2005-08-19 01:00","2005","08","19","01:00","20.8","","17.5","","81","","","M","","M","","","100.06","","26","","","","NA"
"2005-08-19 02:00","2005","08","19","02:00","20.2","","17.1","","82","","","M","","M","","","100.03","","26","","","","NA"
"2005-08-19 03:00","2005","08","19","03:00","20.0","","16.7","","81","","","M","","M","","","99.99","","25","","","","NA"
"2005-08-19 04:00","2005","08","19","04:00","19.8","","17.4","","86","","","M","","M","","","99.97","","","","","","NA"
"2005-08-19 05:00","2005","08","19","05:00","18.9","","17.9","","94","","","M","","M","","","99.96","","","","","","NA"
"2005-08-19 06:00","2005","08","19","06:00","19.0","","17.9","","93","","","M","","M","","","99.99","","","","","","NA"
"2005-08-19 07:00","2005","08","19","07:00","18.6","","17.8","","95","","","M","","M","","","100.04","","","","","","NA"
"2005-08-19 08:00","2005","08","19","08:00","19.5","","19.1","","98","","","M","","M","","","99.96","","","","","","NA"
"2005-08-19 09:00","2005","08","19","09:00","20.8","","20.4","","98","","","M","","M","","","99.88","","29","","","","NA"
"2005-08-19 10:00","2005","08","19","10:00","21.9","","20.4","","91","","","M","","M","","","99.84","","30","","","","NA"
"2005-08-19 11:00","2005","08","19","11:00","22.3","","20.0","","87","","","M","","M","","","99.77","","30","","","","NA"
"2005-08-19 12:00","2005","08","19","12:00","23.2","","20.6","","85","","","M","","M","","","99.73","","31","","","","NA"
"2005-08-19 13:00","2005","08","19","13:00","22.7","","20.9","","90","","","M","","M","","","99.63","","31","","","","NA"
"2005-08-19 14:00","2005","08","19","14:00","23.0","","21.2","","90","","","M","","M","","","99.45","","32","","","","NA"
"2005-08-19 15:00","2005","08","19","15:00","23.7","","21.5","","87","","","M","","M","","","99.46","","33","","","","NA"
"2005-08-19 16:00","2005","08","19","16:00"
"2005-08-19 17:00","2005","08","19","17:00","21.4","","21.1","","98","","","M","","M","","","99.36","","30","","","","NA"
"2005-08-19 18:00","2005","08","19","18:00","22.7","","22.6","","99","","","M","","M","","","99.41","","33","","","","NA"
"2005-08-19 19:00","2005","08","19","19:00","22.3","","22.1","","99","","","M","","M","","","99.43","","32","","","","NA"
"2005-08-19 20:00","2005","08","19","20:00","23.6","","21.7","","89","","","M","","M","","","99.47","","33","","","","NA"
"2005-08-19 21:00","2005","08","19","21:00","23.3","","20.7","","85","","","M","","M","","","99.51","","31","","","","NA"
"2005-08-19 22:00","2005","08","19","22:00","22.4","","19.0","","81","","","M","","M","","","99.52","","29","","","","NA"
"2005-08-19 23:00","2005","08","19","23:00","21.2","","18.4","","84","","","M","","M","","","99.58","","28","","","","NA"
"2005-08-20 00:00","2005","08","20","00:00","21.0","","18.1","","84","","","M","","M","","","99.68","","27","","","","NA"
"2005-08-20 01:00","2005","08","20","01:00","20.8","","17.9","","83","","","M","","M","","","99.72","","27","","","","NA"
"2005-08-20 02:00","2005","08","20","02:00","20.7","","17.7","","83","","","M","","M","","","99.72","","26","","","","NA"
"2005-08-20 03:00","2005","08","20","03:00","20.5","","17.7","","84","","","M","","M","","","99.75","","26","","","","NA"
"2005-08-20 04:00","2005","08","20","04:00","20.4","","17.0","","81","","","M","","M","","","99.77","","26","","","","NA"
"2005-08-20 05:00","2005","08","20","05:00","20.2","","17.1","","82","","","M","","M","","","99.83","","26","","","","NA"
"2005-08-20 06:00","2005","08","20","06:00","20.2","","17.4","","84","","","M","","M","","","99.95","","26","","","","NA"
"2005-08-20 07:00","2005","08","20","07:00","20.5","","17.7","","84","","","M","","M","","","99.95","","26","","","","NA"
"2005-08-20 08:00","2005","08","20","08:00","21.0","","18.3","","85","","","M","","M","","","99.99","","27","","","","NA"
"2005-08-20 09:00","2005","08","20","09:00","22.1","","18.2","","79","","","M","","M","","","100.03","","28","","","","NA"
"2005-08-20 10:00","2005","08","20","10:00","22.6","","18.7","","79","","","M","","M","","","100.07","","29","","","","NA"
"2005-08-20 11:00","2005","08","20","11:00","23.1","","19.0","","78","","","M","","M","","","100.06","","30","","","","NA"
"2005-08-20 12:00","2005","08","20","12:00","22.5","","19.1","","81","","","M","","M","","","99.93","","29","","","","NA"
"2005-08-20 13:00","2005","08","20","13:00","23.3","","19.1","","77","","","M","","M","","","99.91","","30","","","","NA"
"2005-08-20 14:00","2005","08","20","14:00","22.6","","19.4","","82","","","M","","M","","","99.88","","30","","","","NA"
"2005-08-20 15:00","2005","08","20","15:00","23.5","","19.7","","79","","","M","","M","","","99.82","","31","","","","NA"
"2005-08-20 16:00","2005","08","20","16:00","24.0","","19.6","","76","","","M","","M","","","99.79","","31","","","","NA"
"2005-08-20 17:00","2005","08","20","17:00","23.3","","19.9","","81","","","M","","M","","","99.79","","31","","","","NA"
"2005-08-20 18:00","2005","08","20","18:00","23.3","","20.0","","82","","","M","","M","","","99.72","","31","","","","NA"
"2005-08-20 19:00","2005","08","20","19:00","23.4","","19.7","","80","","","M","","M","","","99.71","","31","","","","NA"
"2005-08-20 20:00","2005","08","20","20:00","22.9","","19.7","","82","","","M","","M","","","99.69","","30","","","","NA"
"2005-08-20 21:00","2005","08","20","21:00","22.1","","20.0","","88","","","M","","M","","","99.70","","30","","","","NA"
"2005-08-20 22:00","2005","08","20","22:00","21.7","","20.1","","91","","","M","","M","","","99.66","","29","","","","NA"
"2005-08-20 23:00","2005","08","20","23:00","21.0","","20.2","","95","","","M","","M","","","99.67","","29","","","","NA"
"2005-08-21 00:00","2005","08","21","00:00","20.8","","20.3","","97","","","M","","M","","","99.68","","29","","","","NA"
"2005-08-21 01:00","2005","08","21","01:00","20.8","","20.4","","98","","","M","","M","","","99.65","","29","","","","NA"
"2005-08-21 02:00","2005","08","21","02:00","21.2","","20.4","","95","","","M","","M","","","99.65","","29","","","","NA"
"2005-08-21 03:00","2005","08","21","03:00","20.6","","20.1","","97","","","M","","M","","","99.64","","28","","","","NA"
"2005-08-21 04:00","2005","08","21","04:00","21.1","","19.9","","93","","","M","","M","","","99.65","","29","","","","NA"
"2005-08-21 05:00","2005","08","21","05:00","19.9","","19.1","","95","","","M","","M","","","99.68","","","","","","NA"
"2005-08-21 06:00","2005","08","21","06:00","19.6","","19.0","","96","","","M","","M","","","99.76","","","","","","NA"
"2005-08-21 07:00","2005","08","21","07:00","21.1","","19.7","","92","","","M","","M","","","99.82","","28","","","","NA"
"2005-08-21 08:00","2005","08","21","08:00","22.1","","18.6","","81","","","M","","M","","","99.81","","29","","","","NA"
"2005-08-21 09:00","2005","08","21","09:00","23.8","","18.1","","70","","","M","","M","","","99.80","","30","","","","NA"
"2005-08-21 10:00","2005","08","21","10:00","24.9","","20.0","","74","","","M","","M","","","99.77","","32","","","","NA"
"2005-08-21 11:00","2005","08","21","11:00","27.0","","16.9","","54","","","M","","M","","","99.76","","32","","","","NA"
"2005-08-21 12:00","2005","08","21","12:00","28.2","","17.1","","51","","","M","","M","","","99.72","","34","","","","NA"
"2005-08-21 13:00","2005","08","21","13:00","27.7","","15.7","","48","","","M","","M","","","99.67","","32","","","","NA"
"2005-08-21 14:00","2005","08","21","14:00","28.5","","14.9","","44","","","M","","M","","","99.64","","32","","","","NA"
"2005-08-21 15:00","2005","08","21","15:00","27.5","","14.8","","46","","","M","","M","","","99.62","","31","","","","NA"
"2005-08-21 16:00","2005","08","21","16:00","26.7","","14.0","","46","","","M","","M","","","99.63","","30","","","","NA"
"2005-08-21 17:00","2005","08","21","17:00","25.8","","14.4","","49","","","M","","M","","","99.65","","29","","","","NA"
"2005-08-21 18:00","2005","08","21","18:00","24.8","","12.7","","47","","","M","","M","","","99.69","","27","","","","NA"
"2005-08-21 19:00","2005","08","21","19:00","23.5","","12.1","","49","","","M","","M","","","99.69","","26","","","","NA"
"2005-08-21 20:00","2005","08","21","20:00","22.1","","13.5","","58","","","M","","M","","","99.72","","25","","","","NA"
"2005-08-21 21:00","2005","08","21","21:00","21.5","","13.5","","60","","","M","","M","","","99.75","","25","","","","NA"
"2005-08-21 22:00","2005","08","21","22:00","20.2","","13.2","","64","","","M","","M","","","99.77","","","","","","NA"
"2005-08-21 23:00","2005","08","21","23:00","18.9","","13.2","","69","","","M","","M","","","99.78","","","","","","NA"
"2005-08-22 00:00","2005","08","22","00:00","18.1","","13.6","","75","","","M","","M","","","99.83","","","","","","NA"
"2005-08-22 01:00","2005","08","22","01:00","18.0","","13.8","","76","","","M","","M","","","99.84","","","","","","NA"
"2005-08-22 02:00","2005","08","22","02:00","17.8","","13.7","","77","","","M","","M","","","99.83","","","","","","NA"
"2005-08-22 03:00","2005","08","22","03:00","17.8","","13.3","","75","","","M","","M","","","99.80","","","","","","NA"
"2005-08-22 04:00","2005","08","22","04:00","17.2","","13.1","","77","","","M","","M","","","99.80","","","","","","NA"
"2005-08-22 05:00","2005","08","22","05:00","17.3","","12.6","","74","","","M","","M","","","99.81","","","","","","NA"
"2005-08-22 06:00","2005","08","22","06:00","16.8","","12.6","","76","","","M","","M","","","99.84","","","","","","NA"
"2005-08-22 07:00","2005","08","22","07:00","17.3","","12.4","","73","","","M","","M","","","99.89","","","","","","NA"
"2005-08-22 08:00","2005","08","22","08:00","18.2","","12.9","","71","","","M","","M","","","99.91","","","","","","NA"
"2005-08-22 09:00","2005","08","22","09:00","19.0","","13.1","","69","","","M","","M","","","99.93","","","","","","NA"
"2005-08-22 10:00","2005","08","22","10:00","19.3","","12.6","","65","","","M","","M","","","99.96","","","","","","NA"
"2005-08-22 11:00","2005","08","22","11:00","20.7","","12.9","","61","","","M","","M","","","99.96","","","","","","NA"
"2005-08-22 12:00","2005","08","22","12:00","20.6","","12.1","","58","","","M","","M","","","99.94","","","","","","NA"
"2005-08-22 13:00","2005","08","22","13:00","19.8","","13.4","","67","","","M","","M","","","99.99","","","","","","NA"
"2005-08-22 14:00","2005","08","22","14:00","20.7","","13.1","","62","","","M","","M","","","100.00","","","","","","NA"
"2005-08-22 15:00","2005","08","22","15:00","21.0","","12.9","","60","","","M","","M","","","100.00","","","","","","NA"
"2005-08-22 16:00","2005","08","22","16:00","20.6","","13.0","","62","","","M","","M","","","100.05","","","","","","NA"
"2005-08-22 17:00","2005","08","22","17:00","19.7","","13.8","","69","","","M","","M","","","100.07","","","","","","NA"
"2005-08-22 18:00","2005","08","22","18:00","19.5","","12.7","","65","","","M","","M","","","100.08","","","","","","NA"
"2005-08-22 19:00","2005","08","22","19:00","18.4","","12.8","","70","","","M","","M","","","100.11","","","","","","NA"
"2005-08-22 20:00","2005","08","22","20:00","17.7","","12.9","","73","","","M","","M","","","100.16","","","","","","NA"
"2005-08-22 21:00","2005","08","22","21:00","17.5","","12.5","","72","","","M","","M","","","100.16","","","","","","NA"
"2005-08-22 22:00","2005","08","22","22:00","17.4","","12.5","","73","","","M","","M","","","100.20","","","","","","NA"
"2005-08-22 23:00","2005","08","22","23:00","17.2","","12.5","","74","","","M","","M","","","100.23","","","","","","NA"
"2005-08-23 00:00","2005","08","23","00:00","16.5","","12.5","","77","","","M","","M","","","100.26","","","","","","NA"
"2005-08-23 01:00","2005","08","23","01:00","16.1","","12.6","","80","","","M","","M","","","100.27","","","","","","NA"
"2005-08-23 02:00","2005","08","23","02:00","15.9","","12.6","","81","","","M","","M","","","100.30","","","","","","NA"
"2005-08-23 03:00","2005","08","23","03:00","15.5","","12.4","","82","","","M","","M","","","100.32","","","","","","NA"
"2005-08-23 04:00","2005","08","23","04:00","15.5","","12.6","","83","","","M","","M","","","100.32","","","","","","NA"
"2005-08-23 05:00","2005","08","23","05:00","15.4","","12.7","","84","","","M","","M","","","100.34","","","","","","NA"
"2005-08-23 06:00","2005","08","23","06:00","15.2","","12.8","","86","","","M","","M","","","100.40","","","","","","NA"
"2005-08-23 07:00","2005","08","23","07:00","15.9","","13.1","","83","","","M","","M","","","100.45","","","","","","NA"
"2005-08-23 08:00","2005","08","23","08:00","17.1","","13.6","","80","","","M","","M","","","100.50","","","","","","NA"
"2005-08-23 09:00","2005","08","23","09:00","18.6","","13.5","","72","","","M","","M","","","100.52","","","","","","NA"
"2005-08-23 10:00","2005","08","23","10:00","20.1","","12.6","","62","","","M","","M","","","100.51","","","","","","NA"
"2005-08-23 11:00","2005","08","23","11:00","19.7","","11.7","","60","","","M","","M","","","100.53","","","","","","NA"
"2005-08-23 12:00","2005","08","23","12:00","20.5","","11.6","","57","","","M","","M","","","100.52","","","","","","NA"
"2005-08-23 13:00","2005","08","23","13:00","21.3","","12.3","","56","","","M","","M","","","100.52","","","","","","NA"
"2005-08-23 14:00","2005","08","23","14:00","21.5","","11.4","","53","","","M","","M","","","100.52","","","","","","NA"
"2005-08-23 15:00","2005","08","23","15:00","22.3","","11.9","","52","","","M","","M","","","100.50","","25","","","","NA"
"2005-08-23 16:00","2005","08","23","16:00","21.9","","11.9","","53","","","M","","M","","","100.50","","","","","","NA"
"2005-08-23 17:00","2005","08","23","17:00","22.2","","11.6","","51","","","M","","M","","","100.52","","","","","","NA"
"2005-08-23 18:00","2005","08","23","18:00","21.6","","12.4","","56","","","M","","M","","","100.54","","","","","","NA"
"2005-08-23 19:00","2005","08","23","19:00","21.0","","13.0","","60","","","M","","M","","","100.55","","","","","","NA"
"2005-08-23 20:00","2005","08","23","20:00","19.8","","13.0","","65","","","M","","M","","","100.59","","","","","","NA"
"2005-08-23 21:00","2005","08","23","21:00","18.9","","13.6","","71","","","M","","M","","","100.63","","","","","","NA"
"2005-08-23 22:00","2005","08","23","22:00","18.3","","13.6","","74","","","M","","M","","","100.67","","","","","","NA"
"2005-08-23 23:00","2005","08","23","23:00","18.2","","13.6","","75","","","M","","M","","","100.71","","","","","","NA"
"2005-08-24 00:00","2005","08","24","00:00","17.7","","13.9","","78","","","M","","M","","","100.74","","","","","","NA"
"2005-08-24 01:00","2005","08","24","01:00","17.1","","14.0","","82","","","M","","M","","","100.74","","","","","","NA"
"2005-08-24 02:00","2005","08","24","02:00","16.7","","13.9","","84","","","M","","M","","","100.74","","","","","","NA"
"2005-08-24 03:00","2005","08","24","03:00","16.2","","13.4","","83","","","M","","M","","","100.75","","","","","","NA"
"2005-08-24 04:00","2005","08","24","04:00","16.3","","13.2","","82","","","M","","M","","","100.76","","","","","","NA"
"2005-08-24 05:00","2005","08","24","05:00","15.5","","12.8","","84","","","M","","M","","","100.81","","","","","","NA"
"2005-08-24 06:00","2005","08","24","06:00","15.7","","12.7","","82","","","M","","M","","","100.86","","","","","","NA"
"2005-08-24 07:00","2005","08","24","07:00","17.1","","13.3","","78","","","M","","M","","","100.89","","","","","","NA"
"2005-08-24 08:00","2005","08","24","08:00","19.8","","13.4","","67","","","M","","M","","","100.91","","","","","","NA"
"2005-08-24 09:00","2005","08","24","09:00","21.8","","13.2","","58","","","M","","M","","","100.95","","25","","","","NA"
"2005-08-24 10:00","2005","08","24","10:00","22.9","","11.0","","47","","","M","","M","","","100.96","","25","","","","NA"
"2005-08-24 11:00","2005","08","24","11:00","24.3","","10.8","","43","","","M","","M","","","100.96","","26","","","","NA"
"2005-08-24 12:00","2005","08","24","12:00","24.8","","8.3","","35","","","M","","M","","","100.95","","25","","","","NA"
"2005-08-24 13:00","2005","08","24","13:00","25.4","","8.8","","35","","","M","","M","","","100.95","","26","","","","NA"
"2005-08-24 14:00","2005","08","24","14:00","24.3","","13.6","","51","","","M","","M","","","100.94","","27","","","","NA"
"2005-08-24 15:00","2005","08","24","15:00","24.8","","15.5","","56","","","M","","M","","","100.92","","29","","","","NA"
"2005-08-24 16:00","2005","08","24","16:00","23.9","","15.0","","57","","","M","","M","","","100.92","","28","","","","NA"
"2005-08-24 17:00","2005","08","24","17:00","22.6","","13.7","","57","","","M","","M","","","100.91","","26","","","","NA"
"2005-08-24 18:00","2005","08","24","18:00","22.2","","11.3","","50","","","M","","M","","","100.91","","","","","","NA"
"2005-08-24 19:00","2005","08","24","19:00","21.0","","10.3","","50","","","M","","M","","","100.95","","","","","","NA"
"2005-08-24 20:00","2005","08","24","20:00","20.3","","11.2","","56","","","M","","M","","","101.02","","","","","","NA"
"2005-08-24 21:00","2005","08","24","21:00","19.4","","11.2","","59","","","M","","M","","","101.08","","","","","","NA"
"2005-08-24 22:00","2005","08","24","22:00","18.8","","12.3","","66","","","M","","M","","","101.11","","","","","","NA"
"2005-08-24 23:00","2005","08","24","23:00","17.8","","11.9","","68","","","M","","M","","","101.12","","","","","","NA"
"2005-08-25 00:00","2005","08","25","00:00","17.8","","12.4","","71","","","M","","M","","","101.13","","","","","","NA"
"2005-08-25 01:00","2005","08","25","01:00","17.2","","12.1","","72","","","M","","M","","","101.14","","","","","","NA"
"2005-08-25 02:00","2005","08","25","02:00","17.3","","12.3","","72","","","M","","M","","","101.16","","","","","","NA"
"2005-08-25 03:00","2005","08","25","03:00","16.3","","12.0","","76","","","M","","M","","","101.16","","","","","","NA"
"2005-08-25 04:00","2005","08","25","04:00","16.1","","12.3","","78","","","M","","M","","","101.18","","","","","","NA"
"2005-08-25 05:00","2005","08","25","05:00","16.1","","12.5","","79","","","M","","M","","","101.20","","","","","","NA"
"2005-08-25 06:00","2005","08","25","06:00","16.1","","12.8","","81","","","M","","M","","","101.22","","","","","","NA"
"2005-08-25 07:00","2005","08","25","07:00","18.2","","13.8","","75","","","M","","M","","","101.23","","","","","","NA"
"2005-08-25 08:00","2005","08","25","08:00","20.7","","15.4","","72","","","M","","M","","","101.22","","25","","","","NA"
"2005-08-25 09:00","2005","08","25","09:00","22.1","","14.9","","64","","","M","","M","","","101.24","","26","","","","NA"
"2005-08-25 10:00","2005","08","25","10:00","22.2","","16.2","","69","","","M","","M","","","101.24","","27","","","","NA"
"2005-08-25 11:00","2005","08","25","11:00","22.3","","14.6","","62","","","M","","M","","","101.22","","26","","","","NA"
"2005-08-25 12:00","2005","08","25","12:00","23.8","","12.9","","50","","","M","","M","","","101.19","","27","","","","NA"
"2005-08-25 13:00","2005","08","25","13:00","24.4","","11.9","","46","","","M","","M","","","101.12","","27","","","","NA"
"2005-08-25 14:00","2005","08","25","14:00","25.1","","12.3","","45","","","M","","M","","","101.06","","28","","","","NA"
"2005-08-25 15:00","2005","08","25","15:00","24.4","","11.7","","45","","","M","","M","","","101.00","","27","","","","NA"
"2005-08-25 16:00","2005","08","25","16:00","24.5","","11.9","","45","","","M","","M","","","100.97","","27","","","","NA"
"2005-08-25 17:00","2005","08","25","17:00","24.2","","12.3","","47","","","M","","M","","","100.93","","27","","","","NA"
"2005-08-25 18:00","2005","08","25","18:00","23.7","","10.8","","44","","","M","","M","","","100.87","","25","","","","NA"
"2005-08-25 19:00","2005","08","25","19:00","22.7","","11.5","","49","","","M","","M","","","100.82","","25","","","","NA"
"2005-08-25 20:00","2005","08","25","20:00","22.0","","13.6","","59","","","M","","M","","","100.79","","25","","","","NA"
"2005-08-25 21:00","2005","08","25","21:00","21.5","","16.1","","71","","","M","","M","","","100.78","","26","","","","NA"
"2005-08-25 22:00","2005","08","25","22:00","20.9","","16.4","","75","","","M","","M","","","100.76","","26","","","","NA"
"2005-08-25 23:00","2005","08","25","23:00","20.6","","16.5","","77","","","M","","M","","","100.74","","26","","","","NA"
"2005-08-26 00:00","2005","08","26","00:00","20.2","","17.2","","83","","","M","","M","","","100.74","","26","","","","NA"
"2005-08-26 01:00","2005","08","26","01:00","19.7","","16.8","","83","","","M","","M","","","100.74","","","","","","NA"
"2005-08-26 02:00","2005","08","26","02:00","18.4","","16.4","","88","","","M","","M","","","100.71","","","","","","NA"
"2005-08-26 03:00","2005","08","26","03:00","18.6","","15.1","","80","","","M","","M","","","100.67","","","","","","NA"
"2005-08-26 04:00","2005","08","26","04:00","17.7","","15.2","","85","","","M","","M","","","100.63","","","","","","NA"
"2005-08-26 05:00","2005","08","26","05:00","17.8","","15.1","","84","","","M","","M","","","100.61","","","","","","NA"
"2005-08-26 06:00","2005","08","26","06:00","18.0","","14.9","","82","","","M","","M","","","100.60","","","","","","NA"
"2005-08-26 07:00","2005","08","26","07:00","19.0","","15.7","","81","","","M","","M","","","100.58","","","","","","NA"
"2005-08-26 08:00","2005","08","26","08:00","20.9","","16.6","","76","","","M","","M","","","100.52","","26","","","","NA"
"2005-08-26 09:00","2005","08","26","09:00","22.7","","15.4","","63","","","M","","M","","","100.48","","27","","","","NA"
"2005-08-26 10:00","2005","08","26","10:00","23.1","","16.6","","67","","","M","","M","","","100.46","","28","","","","NA"
"2005-08-26 11:00","2005","08","26","11:00","23.6","","18.4","","73","","","M","","M","","","100.44","","30","","","","NA"
"2005-08-26 12:00","2005","08","26","12:00","24.4","","18.4","","69","","","M","","M","","","100.38","","31","","","","NA"
"2005-08-26 13:00","2005","08","26","13:00","24.5","","17.4","","65","","","M","","M","","","100.34","","30","","","","NA"
"2005-08-26 14:00","2005","08","26","14:00","25.6","","16.7","","58","","","M","","M","","","100.26","","31","","","","NA"
"2005-08-26 15:00","2005","08","26","15:00","25.7","","15.4","","53","","","M","","M","","","100.18","","30","","","","NA"
"2005-08-26 16:00","2005","08","26","16:00","24.9","","15.1","","54","","","M","","M","","","100.14","","29","","","","NA"
"2005-08-26 17:00","2005","08","26","17:00","24.2","","16.0","","60","","","M","","M","","","100.10","","29","","","","NA"
"2005-08-26 18:00","2005","08","26","18:00","23.4","","16.3","","64","","","M","","M","","","100.07","","28","","","","NA"
"2005-08-26 19:00","2005","08","26","19:00","22.7","","15.9","","65","","","M","","M","","","100.04","","27","","","","NA"
"2005-08-26 20:00","2005","08","26","20:00","22.4","","17.0","","72","","","M","","M","","","100.06","","28","","","","NA"
"2005-08-26 21:00","2005","08","26","21:00","22.4","","16.8","","71","","","M","","M","","","100.03","","28","","","","NA"
"2005-08-26 22:00","2005","08","26","22:00","22.7","","16.6","","68","","","M","","M","","","99.99","","28","","","","NA"
"2005-08-26 23:00","2005","08","26","23:00","22.4","","18.1","","77","","","M","","M","","","99.95","","28","","","","NA"
"2005-08-27 00:00","2005","08","27","00:00","22.0","","18.6","","81","","","M","","M","","","99.95","","28","","","","NA"
"2005-08-27 01:00","2005","08","27","01:00","21.6","","18.7","","84","","","M","","M","","","99.93","","28","","","","NA"
"2005-08-27 02:00","2005","08","27","02:00","21.2","","18.9","","87","","","M","","M","","","99.88","","28","","","","NA"
"2005-08-27 03:00","2005","08","27","03:00","20.6","","18.7","","89","","","M","","M","","","99.84","","27","","","","NA"
"2005-08-27 04:00","2005","08","27","04:00","20.2","","19.2","","94","","","M","","M","","","99.83","","27","","","","NA"
"2005-08-27 05:00","2005","08","27","05:00","20.3","","19.4","","95","","","M","","M","","","99.83","","27","","","","NA"
"2005-08-27 06:00","2005","08","27","06:00","20.3","","19.3","","94","","","M","","M","","","99.83","","27","","","","NA"
"2005-08-27 07:00","2005","08","27","07:00","21.4","","19.5","","89","","","M","","M","","","99.82","","29","","","","NA"
"2005-08-27 08:00","2005","08","27","08:00","22.3","","18.4","","79","","","M","","M","","","99.81","","29","","","","NA"
"2005-08-27 09:00","2005","08","27","09:00","22.8","","18.1","","75","","","M","","M","","","99.79","","29","","","","NA"
"2005-08-27 10:00","2005","08","27","10:00","23.4","","17.6","","70","","","M","","M","","","99.76","","29","","","","NA"
"2005-08-27 11:00","2005","08","27","11:00","23.8","","17.9","","70","","","M","","M","","","99.74","","30","","","","NA"
"2005-08-27 12:00","2005","08","27","12:00","24.4","","18.2","","68","","","M","","M","","","99.70","","31","","","","NA"
"2005-08-27 13:00","2005","08","27","13:00","22.7","","18.1","","75","","","M","","M","","","99.63","","29","","","","NA"
"2005-08-27 14:00","2005","08","27","14:00","22.2","","18.6","","80","","","M","","M","","","99.61","","29","","","","NA"
"2005-08-27 15:00","2005","08","27","15:00","22.0","","19.8","","87","","","M","","M","","","99.52","","29","","","","NA"
"2005-08-27 16:00","2005","08","27","16:00","22.4","","19.5","","84","","","M","","M","","","99.47","","30","","","","NA"
"2005-08-27 17:00","2005","08","27","17:00","22.9","","19.7","","82","","","M","","M","","","99.43","","30","","","","NA"
"2005-08-27 18:00","2005","08","27","18:00","21.4","","20.0","","92","","","M","","M","","","99.42","","29","","","","NA"
"2005-08-27 19:00","2005","08","27","19:00","20.8","","19.7","","93","","","M","","M","","","99.41","","28","","","","NA"
"2005-08-27 20:00","2005","08","27","20:00","20.3","","19.7","","96","","","M","","M","","","99.42","","28","","","","NA"
"2005-08-27 21:00","2005","08","27","21:00","20.3","","19.9","","98","","","M","","M","","","99.41","","28","","","","NA"
"2005-08-27 22:00","2005","08","27","22:00","20.9","","20.6","","98","","","M","","M","","","99.45","","29","","","","NA"
"2005-08-27 23:00","2005","08","27","23:00","20.7","","20.3","","98","","","M","","M","","","99.46","","29","","","","NA"
"2005-08-28 00:00","2005","08","28","00:00","20.7","","20.3","","98","","","M","","M","","","99.48","","29","","","","NA"
"2005-08-28 01:00","2005","08","28","01:00","20.8","","20.5","","98","","","M","","M","","","99.49","","29","","","","NA"
"2005-08-28 02:00","2005","08","28","02:00","20.9","","20.4","","97","","","M","","M","","","99.53","","29","","","","NA"
"2005-08-28 03:00","2005","08","28","03:00","20.9","","20.5","","98","","","M","","M","","","99.55","","29","","","","NA"
"2005-08-28 04:00","2005","08","28","04:00","20.4","","20.1","","98","","","M","","M","","","99.60","","28","","","","NA"
"2005-08-28 05:00","2005","08","28","05:00","19.6","","19.3","","98","","","M","","M","","","99.68","","","","","","NA"
"2005-08-28 06:00","2005","08","28","06:00","18.7","","18.5","","99","","","M","","M","","","99.75","","","","","","NA"
"2005-08-28 07:00","2005","08","28","07:00","19.2","","19.1","","99","","","M","","M","","","99.81","","","","","","NA"
"2005-08-28 08:00","2005","08","28","08:00","20.9","","19.7","","93","","","M","","M","","","99.84","","28","","","","NA"
"2005-08-28 09:00","2005","08","28","09:00","22.6","","18.7","","79","","","M","","M","","","99.88","","29","","","","NA"
"2005-08-28 10:00","2005","08","28","10:00","23.4","","19.0","","76","","","M","","M","","","99.94","","30","","","","NA"
"2005-08-28 11:00","2005","08","28","11:00","24.7","","20.2","","76","","","M","","M","","","99.93","","32","","","","NA"
"2005-08-28 12:00","2005","08","28","12:00","26.1","","19.4","","67","","","M","","M","","","99.88","","33","","","","NA"
"2005-08-28 13:00","2005","08","28","13:00","27.1","","16.7","","53","","","M","","M","","","99.88","","32","","","","NA"
"2005-08-28 14:00","2005","08","28","14:00","27.6","","17.9","","56","","","M","","M","","","99.84","","34","","","","NA"
"2005-08-28 15:00","2005","08","28","15:00","28.6","","17.5","","51","","","M","","M","","","99.81","","34","","","","NA"
"2005-08-28 16:00","2005","08","28","16:00","27.6","","18.1","","56","","","M","","M","","","99.81","","34","","","","NA"
"2005-08-28 17:00","2005","08","28","17:00","26.6","","17.6","","58","","","M","","M","","","99.81","","32","","","","NA"
"2005-08-28 18:00","2005","08","28","18:00","26.1","","16.5","","55","","","M","","M","","","99.80","","31","","","","NA"
"2005-08-28 19:00","2005","08","28","19:00","25.5","","15.6","","54","","","M","","M","","","99.84","","30","","","","NA"
"2005-08-28 20:00","2005","08","28","20:00","24.1","","16.6","","63","","","M","","M","","","99.88","","29","","","","NA"
"2005-08-28 21:00","2005","08","28","21:00","23.3","","17.3","","69","","","M","","M","","","99.89","","29","","","","NA"
"2005-08-28 22:00","2005","08","28","22:00","22.1","","17.6","","76","","","M","","M","","","99.88","","28","","","","NA"
"2005-08-28 23:00","2005","08","28","23:00","21.8","","17.7","","78","","","M","","M","","","99.90","","28","","","","NA"
"2005-08-29 00:00","2005","08","29","00:00","21.7","","18.0","","79","","","M","","M","","","99.92","","28","","","","NA"
"2005-08-29 01:00","2005","08","29","01:00","21.2","","18.3","","84","","","M","","M","","","99.91","","27","","","","NA"
"2005-08-29 02:00","2005","08","29","02:00","21.4","","18.6","","84","","","M","","M","","","99.91","","28","","","","NA"
"2005-08-29 03:00","2005","08","29","03:00","20.5","","17.6","","83","","","M","","M","","","99.91","","26","","","","NA"
"2005-08-29 04:00","2005","08","29","04:00","19.8","","17.5","","87","","","M","","M","","","99.91","","","","","","NA"
"2005-08-29 05:00","2005","08","29","05:00","19.7","","17.7","","88","","","M","","M","","","99.92","","","","","","NA"
"2005-08-29 06:00","2005","08","29","06:00","20.3","","17.9","","86","","","M","","M","","","99.95","","26","","","","NA"
"2005-08-29 07:00","2005","08","29","07:00","20.9","","18.5","","86","","","M","","M","","","99.97","","27","","","","NA"
"2005-08-29 08:00","2005","08","29","08:00","22.4","","18.9","","81","","","M","","M","","","99.99","","29","","","","NA"
"2005-08-29 09:00","2005","08","29","09:00","23.9","","19.5","","76","","","M","","M","","","100.00","","31","","","","NA"
"2005-08-29 10:00","2005","08","29","10:00","25.0","","20.1","","74","","","M","","M","","","100.01","","33","","","","NA"
"2005-08-29 11:00","2005","08","29","11:00","25.9","","19.4","","67","","","M","","M","","","100.00","","33","","","","NA"
"2005-08-29 12:00","2005","08","29","12:00","27.3","","20.3","","66","","","M","","M","","","99.95","","35","","","","NA"
"2005-08-29 13:00","2005","08","29","13:00","27.7","","20.3","","64","","","M","","M","","","99.94","","36","","","","NA"
"2005-08-29 14:00","2005","08","29","14:00","27.4","","19.1","","61","","","M","","M","","","99.90","","34","","","","NA"
"2005-08-29 15:00","2005","08","29","15:00","26.8","","18.4","","60","","","M","","M","","","99.88","","33","","","","NA"
"2005-08-29 16:00","2005","08","29","16:00","26.9","","18.2","","59","","","M","","M","","","99.84","","33","","","","NA"
"2005-08-29 17:00","2005","08","29","17:00","26.5","","17.8","","59","","","M","","M","","","99.85","","32","","","","NA"
"2005-08-29 18:00","2005","08","29","18:00","25.6","","18.3","","64","","","M","","M","","","99.84","","32","","","","NA"
"2005-08-29 19:00","2005","08","29","19:00","24.5","","19.4","","73","","","M","","M","","","99.86","","32","","","","NA"
"2005-08-29 20:00","2005","08","29","20:00","24.2","","16.6","","63","","","M","","M","","","99.91","","29","","","","NA"
"2005-08-29 21:00","2005","08","29","21:00","23.3","","17.5","","70","","","M","","M","","","99.88","","29","","","","NA"
"2005-08-29 22:00","2005","08","29","22:00","22.4","","17.5","","74","","","M","","M","","","99.90","","28","","","","NA"
"2005-08-29 23:00","2005","08","29","23:00","21.3","","18.1","","82","","","M","","M","","","99.86","","27","","","","NA"
"2005-08-30 00:00","2005","08","30","00:00","20.8","","18.4","","86","","","M","","M","","","99.86","","27","","","","NA"
"2005-08-30 01:00","2005","08","30","01:00","20.1","","18.2","","89","","","M","","M","","","99.81","","26","","","","NA"
"2005-08-30 02:00","2005","08","30","02:00","19.6","","18.3","","92","","","M","","M","","","99.79","","","","","","NA"
"2005-08-30 03:00","2005","08","30","03:00","19.5","","18.1","","92","","","M","","M","","","99.76","","","","","","NA"
"2005-08-30 04:00","2005","08","30","04:00","19.0","","17.9","","93","","","M","","M","","","99.77","","","","","","NA"
"2005-08-30 05:00","2005","08","30","05:00","19.2","","17.9","","92","","","M","","M","","","99.77","","","","","","NA"
"2005-08-30 06:00","2005","08","30","06:00","19.2","","18.1","","93","","","M","","M","","","99.79","","","","","","NA"
"2005-08-30 07:00","2005","08","30","07:00","20.3","","18.7","","91","","","M","","M","","","99.78","","27","","","","NA"
"2005-08-30 08:00","2005","08","30","08:00","22.1","","19.1","","83","","","M","","M","","","99.79","","29","","","","NA"
"2005-08-30 09:00","2005","08","30","09:00","23.4","","18.7","","75","","","M","","M","","","99.76","","30","","","","NA"
"2005-08-30 10:00","2005","08","30","10:00","23.8","","18.5","","72","","","M","","M","","","99.74","","30","","","","NA"
"2005-08-30 11:00","2005","08","30","11:00","24.0","","18.5","","71","","","M","","M","","","99.71","","30","","","","NA"
"2005-08-30 12:00","2005","08","30","12:00","24.1","","18.9","","73","","","M","","M","","","99.67","","31","","","","NA"
"2005-08-30 13:00","2005","08","30","13:00","25.3","","19.0","","68","","","M","","M","","","99.60","","32","","","","NA"
"2005-08-30 14:00","2005","08","30","14:00","25.0","","19.0","","69","","","M","","M","","","99.57","","32","","","","NA"
"2005-08-30 15:00","2005","08","30","15:00","24.5","","19.3","","73","","","M","","M","","","99.50","","32","","","","NA"
"2005-08-30 16:00","2005","08","30","16:00","23.6","","19.1","","76","","","M","","M","","","99.48","","30","","","","NA"
"2005-08-30 17:00","2005","08","30","17:00","22.7","","19.1","","80","","","M","","M","","","99.43","","30","","","","NA"
"2005-08-30 18:00","2005","08","30","18:00","22.5","","19.0","","81","","","M","","M","","","99.39","","29","","","","NA"
"2005-08-30 19:00","2005","08","30","19:00","22.5","","19.4","","83","","","M","","M","","","99.33","","30","","","","NA"
"2005-08-30 20:00","2005","08","30","20:00","22.1","","19.9","","87","","","M","","M","","","99.33","","30","","","","NA"
"2005-08-30 21:00","2005","08","30","21:00","21.8","","20.0","","90","","","M","","M","","","99.31","","29","","","","NA"
"2005-08-30 22:00","2005","08","30","22:00","21.4","","20.5","","95","","","M","","M","","","99.22","","29","","","","NA"
"2005-08-30 23:00","2005","08","30","23:00","21.4","","20.7","","96","","","M","","M","","","99.11","","30","","","","NA"
"2005-08-31 00:00","2005","08","31","00:00","21.2","","20.9","","98","","","M","","M","","","98.99","","30","","","","NA"
"2005-08-31 01:00","2005","08","31","01:00","20.5","","20.0","","97","","","M","","M","","","98.87","","28","","","","NA"
"2005-08-31 02:00","2005","08","31","02:00","20.6","","20.2","","98","","","M","","M","","","98.76","","28","","","","NA"
"2005-08-31 03:00","2005","08","31","03:00","20.0","","19.6","","98","","","M","","M","","","98.69","","27","","","","NA"
"2005-08-31 04:00","2005","08","31","04:00","19.6","","19.2","","98","","","M","","M","","","98.63","","","","","","NA"
"2005-08-31 05:00","2005","08","31","05:00","19.7","","19.3","","98","","","M","","M","","","98.58","","","","","","NA"
"2005-08-31 06:00","2005","08","31","06:00","19.5","","18.9","","96","","","M","","M","","","98.63","","","","","","NA"
"2005-08-31 07:00","2005","08","31","07:00","19.2","","18.4","","95","","","M","","M","","","98.65","","","","","","NA"
"2005-08-31 08:00","2005","08","31","08:00","19.9","","19.2","","96","","","M","","M","","","98.70","","","","","","NA"
"2005-08-31 09:00","2005","08","31","09:00","20.4","","19.1","","92","","","M","","M","","","98.75","","27","","","","NA"
"2005-08-31 10:00","2005","08","31","10:00","21.6","","19.2","","86","","","M","","M","","","98.78","","29","","","","NA"
"2005-08-31 11:00","2005","08","31","11:00","22.8","","19.3","","81","","","M","","M","","","98.79","","30","","","","NA"
"2005-08-31 12:00","2005","08","31","12:00"
"2005-08-31 13:00","2005","08","31","13:00"
"2005-08-31 14:00","2005","08","31","14:00"
"2005-08-31 15:00","2005","08","31","15:00"
"2005-08-31 16:00","2005","08","31","16:00","24.4","","18.7","","71","","","M","","M","","","98.99","","31","","","","NA"
"2005-08-31 17:00","2005","08","31","17:00","24.7","","18.2","","67","","","M","","M","","","99.05","","31","","","","NA"
"2005-08-31 18:00","2005","08","31","18:00","23.4","","17.4","","69","","","M","","M","","","99.13","","29","","","","NA"
"2005-08-31 19:00","2005","08","31","19:00","22.8","","17.3","","71","","","M","","M","","","99.21","","28","","","","NA"
"2005-08-31 20:00","2005","08","31","20:00","21.8","","16.4","","71","","","M","","M","","","99.31","","27","","","","NA"
"2005-08-31 21:00","2005","08","31","21:00","21.0","","16.2","","74","","","M","","M","","","99.36","","26","","","","NA"
"2005-08-31 22:00","2005","08","31","22:00","20.0","","16.0","","78","","","M","","M","","","99.40","","25","","","","NA"
"2005-08-31 23:00","2005","08","31","23:00","19.3","","16.3","","83","","","M","","M","","","99.44","","","","","","NA"
